,accuracy,formatted_address,google_place_id,input_string,latitude,longitude,number_of_results,postcode,status,type
0,ROOFTOP,"Lot 241 Level 2 Suria, KLCC, Kuala Lumpur City Centre, 50088 Kuala Lumpur, Malaysia",ChIJH5xmLdE3zDERKa4a_IywVck,Suria KLCC Mall,3.1579513,101.7116233,1,50088,OK,"establishment,point_of_interest,shopping_mall"
1,ROOFTOP,"6, Jalan Taman Setiawangsa, Au 2, 54200 Kuala Lumpur, Wilayah Persekutuan Kuala Lumpur, Malaysia",ChIJp7mMpJ03zDERQFYGwK_Qnbs,ÆON AU2 (Setiawangsa) Shopping Centre,3.1771604,101.7506833,2,54200,OK,"establishment,point_of_interest,shopping_mall"
2,ROOFTOP,"1, Jalan Metro Prima, Taman Kepong, 52100 Kuala Lumpur, Wilayah Persekutuan Kuala Lumpur, Malaysia",ChIJfSwIzUFGzDER0wK-BQebvVw,ÆON Metro Prima Shopping Centre,3.2131571,101.6389599,1,52100,OK,"establishment,point_of_interest,shopping_mall"
3,ROOFTOP,"52, Jalan Jejaka, Maluri, 55100 Kuala Lumpur, Wilayah Persekutuan Kuala Lumpur, Malaysia",ChIJI2uKaRM2zDERpt7du-HIaqk,ÆON Taman Maluri Shopping Centre,3.12601,101.7284,1,55100,OK,"establishment,point_of_interest,shopping_mall"
4,GEOMETRIC_CENTER,"F06A, AEON Alpha Angle Shopping Centre, Jalan R1, Wangsa Maju, 53300 Kuala Lumpur, Malaysia",ChIJpRr4jTw4zDERitRozL-O0bk,ÆON Wangsa Maju & Alpha Angle Shopping Centre,3.202363,101.7341453,1,53300,OK,"establishment,point_of_interest"
5,ROOFTOP,"404, Ampang Park, Jalan Ampang, Hampshire Park, 50450 Kuala Lumpur, Selangor, Malaysia",ChIJCRqX-883zDER71Vdw2_RwGw,Ampang Park (Closed for MRT SSP project)[1],3.1607103,101.7187447,1,50450,OK,"establishment,point_of_interest,shopping_mall"
6,ROOFTOP,"2323 Avenue K, Lubbock, TX 79411, USA",ChIJuQs98Cht_oYRI1XeAtepmnw,Avenue K Shopping Mall,33.5733152,-101.8470651,1,79411,OK,"establishment,point_of_interest,shopping_mall"
7,ROOFTOP,"T117A, 285, Jalan Maarof, 59000 Kuala Lumpur, Wilayah Persekutuan Kuala Lumpur, Malaysia",ChIJ7_y5Tq9JzDERVkRzAXei3c8,Bangsar Shopping Centre,3.1432377,101.6673674,1,59000,OK,"establishment,point_of_interest,shopping_mall"
8,ROOFTOP,"1, Jalan Telawi 1, Bangsar Baru, 59100 Kuala Lumpur, Wilayah Persekutuan Kuala Lumpur, Malaysia",ChIJ3frksplJzDER5USO8zLKNs0,Bangsar Village,3.1296713,101.6707564,1,59100,OK,"establishment,point_of_interest,shopping_mall"
9,GEOMETRIC_CENTER,"LOT 01-26, 01-28 & 01-30 1ST FLR, BERJAYA TIMES SQUARE, Jalan Imbi, Bukit Bintang, 55100 Kuala Lumpur, Malaysia",ChIJvX9ogSg2zDERISLhBv4xGOo,Berjaya Times Square,3.1422003,101.7106185,2,55100,OK,"establishment,point_of_interest,store"
10,GEOMETRIC_CENTER,"Jalan Kepong, Jinjang Selatan, 52000 Kuala Lumpur, Wilayah Persekutuan Kuala Lumpur, Malaysia",ChIJ31oLl85HzDERW9aX56STRI0,Brem Shopping Centre,3.2044172,101.667518,1,52000,OK,"establishment,point_of_interest,shopping_mall"
11,GEOMETRIC_CENTER,"Jalan Bukit Bintang, Kuala Lumpur, Wilayah Persekutuan Kuala Lumpur, Malaysia",ChIJz2ikgy42zDEROwsPkQYYWpE,Bukit Bintang Plaza (Closed for MRT SBK project under renovation),3.1481969,101.7148985,1,,OK,route
12,GEOMETRIC_CENTER,"Persiaran Capsquare, Capital Square, 50250 Kuala Lumpur, Wilayah Persekutuan Kuala Lumpur, Malaysia",ChIJ69s5ZyxIzDERCww7H-uT6dI,CapSquare Centre,3.1541482,101.7001134,1,50250,OK,"establishment,food,point_of_interest,restaurant"
13,GEOMETRIC_CENTER,"UNIT L-32/33, CHERAS LEISURE MALL, TAMAN SEGAR BARU 6 ½, JALAN CHERAS,56100 KUAL, 56100 Cheras, Federal Territory of Kuala Lumpur, Malaysia",ChIJaZeB6rc1zDERqBVtluOT-2w,Cheras Leisure Mall,3.0909495,101.7424103,1,56100,OK,"establishment,point_of_interest,store"
14,ROOFTOP,"Cheras Sentral, Phoenix Business Park, 56000 Kuala Lumpur, Federal Territory of Kuala Lumpur, Malaysia",ChIJb_WKwq41zDEROM40yBJJrcs,Cheras Sentral,3.0784689,101.7449415,1,56000,OK,"establishment,point_of_interest,premise"
15,ROOFTOP,"6, Jalan Damanlela, Bukit Damansara, 50490 Kuala Lumpur, Wilayah Persekutuan Kuala Lumpur, Malaysia",ChIJsS6I5KlJzDERAmJx91OQpUk,Damansara City Mall,3.1455615,101.6625038,1,50490,OK,"establishment,point_of_interest,shopping_mall"
16,ROOFTOP,"8, Jalan PJU 8/1, Damansara Perdana, 47820 Petaling Jaya, Selangor, Malaysia",ChIJSSPTRTNPzDERMd8kDLrK8VI,Empire City Damansara,3.1661507,101.6152465,1,47820,OK,"establishment,point_of_interest"
17,ROOFTOP,"Endah Parade, 1, Jalan 1/149e, Taman Sri Endah, 57000 Kuala Lumpur, Wilayah Persekutuan Kuala Lumpur, Malaysia",ChIJg-Gw-o9KzDERlqNBQvsTb-Q,Endah Parade,3.0632884,101.6950578,1,57000,OK,"establishment,point_of_interest,shopping_mall"
18,ROOFTOP,"179, Jalan Bukit Bintang, Bukit Bintang, 55100 Kuala Lumpur, Wilayah Persekutuan Kuala Lumpur, Malaysia",ChIJg5laCyw2zDERUuHjHTLlnok,Fahrenheit 88 (formerly KL Plaza),3.1470263,101.7129575,1,55100,OK,"establishment,point_of_interest,shopping_mall"
19,ROOFTOP,"699, Jalan Damansara, Taman Tun Dr Ismail, 60000 Kuala Lumpur, Wilayah Persekutuan Kuala Lumpur, Malaysia",ChIJj_dWfzhJzDERI9HaoLGBJq8,Glo Damansara,3.1327092,101.6298273,1,60000,OK,"establishment,point_of_interest,shopping_mall"
20,GEOMETRIC_CENTER,"Whitehall, OH 43213, USA",ChIJC6kM-O9iOIgR3zO4d0Gs4XY,Great Eastern Shopping Centre,39.9565782,-82.875503,1,43213,OK,"establishment,point_of_interest,shopping_mall"
21,ROOFTOP,"60, Jalan Sri Hartamas 1, Taman Sri Hartamas, 50480 Kuala Lumpur, Wilayah Persekutuan Kuala Lumpur, Malaysia",ChIJQdVhI_dIzDERjqhpE-AGlew,Hartamas Shopping Centre,3.1638972,101.6566027,1,50480,OK,"establishment,point_of_interest,shopping_mall"
22,ROOFTOP,"2A, Jalan Cochrane, Maluri, 55100 Kuala Lumpur, Wilayah Persekutuan Kuala Lumpur, Malaysia",ChIJdRZFXzw2zDER5LPHvYl-DeM,IKEA Cheras,3.1351537,101.7211894,1,55100,OK,"establishment,furniture_store,home_goods_store,point_of_interest,store"
23,GEOMETRIC_CENTER,"Jalan Imbi, Bukit Bintang, 55100 Kuala Lumpur, Wilayah Persekutuan Kuala Lumpur, Malaysia",ChIJ2T6f3yg2zDERCa7pS_8xabQ,Imbi Plaza,3.1438109,101.7112198,1,55100,OK,"establishment,point_of_interest,premise,shopping_mall"
24,ROOFTOP,"348, Jalan Tun Razak, Kampung Datuk Keramat, 50400 Kuala Lumpur, Wilayah Persekutuan Kuala Lumpur, Malaysia",ChIJVXXIZcU3zDERkpdEfCQBDT8,Intermark Mall,3.1616763,101.720359,1,50400,OK,"establishment,point_of_interest,shopping_mall"
25,ROOFTOP,"2, Jalan Gelugor, Pudu, 55200 Kuala Lumpur, Wilayah Persekutuan Kuala Lumpur, Malaysia",ChIJC_fmviA2zDERcNJ1DVxiL1M,Kenanga Wholesale City,3.1363717,101.7082905,1,55200,OK,"clothing_store,establishment,point_of_interest,store"
26,ROOFTOP,"1-02, 2, Jalan Kerinchi, Pantai Dalam, 59200 Kuala Lumpur, Wilayah Persekutuan Kuala Lumpur, Malaysia",ChIJq6reQYBJzDERGDH3SiooRZI,KL Gateway,3.1139835,101.6630791,2,59200,OK,"establishment,point_of_interest,shopping_mall"
27,ROOFTOP,"106 S Cayuga St, Ithaca, NY 14850, USA",ChIJp4SWV5yB0IkR4XnTSNaeRU4,Lot 10,42.4392676,-76.4992313,1,14850,OK,"bar,establishment,night_club,point_of_interest"
28,ROOFTOP,"7, Jalan Bintang, Bukit Bintang, 55100 Kuala Lumpur, Wilayah Persekutuan Kuala Lumpur, Malaysia",ChIJYYacASk2zDERh3Iqf0NTR1g,Low Yat Plaza,3.14409,101.709917,1,55100,OK,"establishment,point_of_interest,shopping_mall"
29,ROOFTOP,"133 Neal St, Grass Valley, CA 95945, USA",ChIJMeknKDdwm4ARMoPX5ZqN06g,M3 Mall,39.2170794,-121.0631192,1,95945,OK,"establishment,health,point_of_interest,store"
30,ROOFTOP,"LOT F-049&050,1ST, Mid Valley Megamall, Mid Valley City, 58000 Kuala Lumpur, Malaysia",ChIJIfr-rI5JzDERufYjnPbahVM,Mid Valley Megamall,3.117855,101.677844,1,58000,OK,"establishment,point_of_interest,store"
31,ROOFTOP,"Seksyen, 90, Jalan Cochrane, Cheras, 55100 Kuala Lumpur, Wilayah Persekutuan Kuala Lumpur, Malaysia",ChIJB3uwzD02zDERHQMlA6UmnJU,MyTOWN Shopping Centre,3.134746,101.7230374,1,55100,OK,"establishment,point_of_interest,shopping_mall"
32,ROOFTOP,"201, Jalan Tun Sambanthan, Brickfields, 50470 Kuala Lumpur, Wilayah Persekutuan Kuala Lumpur, Malaysia",ChIJBZVVtcFJzDERf66264rTSd8,NU Sentral,3.133192,101.687137,1,50470,OK,"establishment,point_of_interest,shopping_mall"
33,ROOFTOP,"Maju Junction Mall, 1001, Jalan Sultan Ismail, Chow Kit, 50250 Kuala Lumpur, Wilayah Persekutuan Kuala Lumpur, Malaysia",ChIJezpiuy9IzDERWB2T1cJVZDo,Parkson Maju Junction Mall (Closed)[2],3.1597466,101.6974635,2,50250,OK,"establishment,food,point_of_interest,restaurant"
34,ROOFTOP,"168, Jalan Bukit Bintang, Bukit Bintang, 55100 Kuala Lumpur, Wilayah Persekutuan Kuala Lumpur, Malaysia",ChIJMdCXsCk2zDER0-ooNDiRUEA,Pavilion Kuala Lumpur,3.1488643,101.7134909,1,55100,OK,"establishment,point_of_interest,shopping_mall"
35,GEOMETRIC_CENTER,"Lot 1.01.35 & 1.01.36, Ground Floor Pearl Point Shopping Centre Jalan Klang Lama 58000 Kuala Lumpur MY, Jalan Klang Lama, 58200 Kuala Lumpur, Federal Territory of Kuala Lumpur, Malaysia",ChIJN0vXrodLzDER9vTQpG9pc_o,Pearl Point Shopping Centre,3.0847458,101.6733439,1,58200,OK,"establishment,point_of_interest,store"
36,,,,Pertama Complex,,,0,,ZERO_RESULTS,
37,GEOMETRIC_CENTER,"Jalan Sungai Besi, Taman Sungai Besi, 57100 Kuala Lumpur, Wilayah Persekutuan Kuala Lumpur, Malaysia",ChIJafTEUXNKzDERX3BdnK7j-ug,Plaza 63,3.09199,101.7004792,1,57100,OK,"establishment,point_of_interest,premise"
38,GEOMETRIC_CENTER,"Jalan Mega Kecil, Taman United, 58200 Kuala Lumpur, Wilayah Persekutuan Kuala Lumpur, Malaysia",ChIJaU-oFlBKzDERCpuSA8z_yfM,Plaza OUG,3.081898,101.671394,1,58200,OK,"establishment,food,grocery_or_supermarket,point_of_interest,premise,store,supermarket"
39,ROOFTOP,"2, Jalan 1/125e, Taman Desa Petaling, 57100 Kuala Lumpur, Wilayah Persekutuan Kuala Lumpur, Malaysia",ChIJ14mYXXdKzDERq3Rr43idU3k,Plaza Salak Park,3.082846,101.702362,1,57100,OK,"establishment,point_of_interest,shopping_mall"
40,GEOMETRIC_CENTER,"Publika, 1, Jalan Dutamas, Solaris Dutamas, 50480 Kuala Lumpur, Wilayah Persekutuan Kuala Lumpur, Malaysia",ChIJCWgeGV5IzDERw2PRdobhgbI,Publika,3.1711896,101.6659172,1,50480,OK,premise
41,GEOMETRIC_CENTER,"Jalan Landak, Pudu, 55100 Kuala Lumpur, Wilayah Persekutuan Kuala Lumpur, Malaysia",ChIJA0juDyQ2zDERbw5U5tplz0Y,Pudu Plaza,3.1373989,101.7137701,2,55100,OK,"establishment,point_of_interest,shopping_mall"
42,ROOFTOP,"1018, Jalan Sultan Ismail, Bandar Wawasan, 55100 Kuala Lumpur, Wilayah Persekutuan Kuala Lumpur, Malaysia",ChIJcV4l1Sg2zDERF6kL6TW_TqA,Quill City Mall,3.1598674,101.700055,1,55100,OK,"establishment,point_of_interest,shopping_mall"
43,ROOFTOP,"67, Jalan Taman Ibu Kota, Taman Danau Kota, 53300 Kuala Lumpur, Wilayah Persekutuan Kuala Lumpur, Malaysia",ChIJL4BKORI4zDERB8t2wthEFkI,Setapak Central,3.2046409,101.7207633,1,53300,OK,"establishment,point_of_interest,shopping_mall"
44,ROOFTOP,"190, Jalan Tuanku Abdul Rahman, City Centre, 50100 Kuala Lumpur, Wilayah Persekutuan Kuala Lumpur, Malaysia",ChIJbUbW7y1IzDERi6WYVG8fI5c,Sogo Kuala Lumpur,3.156181,101.6953799,1,50100,OK,"department_store,establishment,point_of_interest,shopping_mall,store"
45,ROOFTOP,"181, Jalan Bukit Bintang, Bukit Bintang, 55100 Kuala Lumpur, Wilayah Persekutuan Kuala Lumpur, Malaysia",ChIJy1W23ys2zDERmNrv5_HwUQg,Starhill Gallery,3.1477734,101.713864,1,55100,OK,"establishment,point_of_interest,shopping_mall,store"
46,GEOMETRIC_CENTER,"009, Jalan Bukit Bintang, Bukit Bintang, 55100 Kuala Lumpur, Wilayah Persekutuan Kuala Lumpur, Malaysia",ChIJw_uZIyk2zDERHksxFNzcHb8,Sungei Wang Plaza,3.1447796,101.7109316,1,55100,OK,"establishment,point_of_interest,shopping_mall"
47,ROOFTOP,"Sunway Putra Mall, 100, Jalan Putra, Chow Kit, 50350 Kuala Lumpur, Malaysia",ChIJgapFpai1zTER5s2Kj3AyyeI,Sunway Putra Mall,3.16682,101.692485,1,50350,OK,"establishment,point_of_interest,shopping_mall"
48,GEOMETRIC_CENTER,"Lingkaran SV, Sunway Velocity, Jalan Cheras, 55100, Wilayah Persekutuan Kuala Lumpur, Malaysia",ChIJwYo9AhQ2zDERokwJnyvbwhY,Sunway Velocity Mall,3.1274676,101.7245077,1,55100,OK,"establishment,point_of_interest,shopping_mall"
49,ROOFTOP,"Lot 241 Level 2 Suria, KLCC, Kuala Lumpur City Centre, 50088 Kuala Lumpur, Malaysia",ChIJH5xmLdE3zDERKa4a_IywVck,Suria KLCC,3.1579513,101.7116233,1,50088,OK,"establishment,point_of_interest,shopping_mall"
50,ROOFTOP,"Sb2 & Sb3 Sub Basement, 52100, No.3, Jalan 7A/62A, Bandar Menjalara, 52200 Kuala Lumpur, Federal Territory of Kuala Lumpur, Malaysia",ChIJy-syZR5GzDER_HEDIE0-f1E,Tesco Kepong Village Mall,3.193524,101.6335609,2,52200,OK,"establishment,point_of_interest,store"
51,ROOFTOP,"3101 PGA Boulevard, Palm Beach Gardens, FL 33410, USA",ChIJPXlx3pcq34gR4C2DoXJZUqc,The Gardens Mall,26.8485879,-80.0853187,1,33410,OK,"establishment,point_of_interest,shopping_mall"
52,ROOFTOP,"76, Jalan Raja Chulan, Kuala Lumpur, 50450 Kuala Lumpur, Wilayah Persekutuan Kuala Lumpur, Malaysia",ChIJt1sEqio2zDERvuT9s395DhE,The Weld Mall,3.1510152,101.7068315,1,50450,OK,"establishment,point_of_interest,shopping_mall"
53,ROOFTOP,"LG, 85, Jalan Loke Yew, Taman Miharja, 55200 Kuala Lumpur, Wilayah Persekutuan Kuala Lumpur, Malaysia",ChIJLUhubBA2zDERwbX9kcRmkr4,Viva Home,3.123119,101.719234,1,55200,OK,"establishment,point_of_interest,shopping_mall"
54,ROOFTOP,"9, Jalan Wangsa Perdana 1, Wangsa Maju, 53300 Kuala Lumpur, Wilayah Persekutuan Kuala Lumpur, Malaysia",ChIJFW5WhS84zDERQC7gFWAr_7Y,Wangsa Walk Mall,3.1984176,101.742025,1,53300,OK,"establishment,point_of_interest,shopping_mall"
55,ROOFTOP,"1-01, 100, Jalan 4/91, Taman Shamelin Perkasa, 56100 Kuala Lumpur, Wilayah Persekutuan Kuala Lumpur, Malaysia",ChIJY1Zv3m82zDERcvJ69kHY4iw,1 Shamelin Shopping Centre,3.1220974,101.7400131,1,56100,OK,"establishment,point_of_interest,shopping_mall"
56,APPROXIMATE,"Financial Park, 87000 Labuan, Wilayah Persekutuan Labuan, Malaysia",ChIJGyOescQYIzIRhd8ZgfdWjII,Financial Park Labuan,5.275694,115.2486421,1,87000,OK,"political,sublocality,sublocality_level_1"
57,GEOMETRIC_CENTER,"Jalan Alamanda, Presint 1, 62000 Putrajaya, Wilayah Persekutuan Putrajaya, Malaysia",ChIJRdkIxt_JzTERBh81g8-8zvk,Alamanda Shopping Centre,2.9395178,101.710625,1,62000,OK,"establishment,point_of_interest,shopping_mall"
58,GEOMETRIC_CENTER,"Lot G51 & G52, Ground Floor , Batu Pahat Mall, Jalan Kluang, 83000 Batu Pahat, Johor, Malaysia",ChIJvSc_pbFQ0DER0627YD-67RQ,Batu Pahat Mall,1.8642453,102.9629314,1,83000,OK,"establishment,point_of_interest,store"
59,ROOFTOP,"1201 Broadway, Saugus, MA 01906, USA",ChIJudr69F9y44kRcygDx9L4yAY,Square One Mall,42.4608341,-71.0274472,1,1906,OK,"establishment,point_of_interest,shopping_mall"
60,ROOFTOP,"88, Jalan Bakau Condong, Kampung Pegawai, 83000 Batu Pahat, Johor, Malaysia",ChIJp9hnB81W0DER_rYnnlBxPyc,The Summit Batu Pahat,1.8574785,102.9349764,1,83000,OK,"establishment,point_of_interest,shopping_mall"
61,ROOFTOP,"LOT S51, Aeon Bukit Indah Shopping Centre, 8, Jalan Indah 15/2, Taman Bukit Indah, 81200 Johor Bahru, Johor, Malaysia",ChIJt0xtwktz2jERRS2DKtCZfp0,ÆON Bukit Indah Shopping Centre,1.4817895,103.6556812,1,81200,OK,"electronics_store,establishment,home_goods_store,point_of_interest,shopping_mall,store"
62,ROOFTOP,"4, Jalan Pendidikan, Taman Universiti, 81300 Johor Bahru, Johor, Malaysia",ChIJWTczPA902jERgXy_vW9D17o,ÆON Taman Universiti Shopping Centre,1.542432,103.6292422,1,81300,OK,"establishment,food,grocery_or_supermarket,point_of_interest,store,supermarket"
63,ROOFTOP,"Mall of Medini, 79100 Nusajaya, Johor, Malaysia",ChIJTWnN_ogL2jER_vHyehiA0K4,Mall of Medini,1.4290229,103.6331061,1,79100,OK,premise
64,ROOFTOP,"3, Jalan Persisiran Perling, Taman Perling, 81200 Johor Bahru, Johor, Malaysia",ChIJHy20ih9z2jERrDl0bzQ2xwQ,Perling Mall,1.4967001,103.6809575,1,81200,OK,"establishment,point_of_interest,premise"
65,ROOFTOP,"01-51 01-52 01-53, Jalan Skudai Batu 10, Skudai, 81300 Skudai, Johor, Malaysia",ChIJZTWIiMJz2jERKa4pEK__HBk,Skudai Parade,1.5415726,103.6599695,1,81300,OK,"establishment,point_of_interest,premise"
66,ROOFTOP,"Sutera Mall, 1, Jalan Sutera Tanjung 8/4, Taman Sutera Utama, 81300 Skudai, Johor, Malaysia",ChIJ5-YuwMFz2jERCJbqqo0ig0U,Sutera Mall,1.5178091,103.6714578,1,81300,OK,"establishment,point_of_interest,shopping_mall"
67,ROOFTOP,"Plaza Tasek, 2, Jalan Pendekar 16, Taman Ungku Tun Aminah, 81300 Skudai, Johor, Malaysia",ChIJMzC4uXVz2jERDMi3_zkpoB0,Tasek Central,1.5139952,103.6555294,1,81300,OK,"establishment,point_of_interest,shopping_mall"
68,ROOFTOP,"155 Dorset St, South Burlington, VT 05403, USA",ChIJ7ad-fzR6ykwRsKcl0xIGe4o,U Mall,44.4658817,-73.184102,1,5403,OK,"establishment,point_of_interest,shopping_mall"
69,ROOFTOP,"3, Jln Dato' Onn 3, Bandar Dato Onn, 81100 Johor Bahru, Johor, Malaysia",ChIJ2St8mxxu2jERTeACpDMGci4,ÆON Mall Bandar Dato' Onn,1.5636016,103.7346083,1,81100,OK,"establishment,point_of_interest,shopping_mall"
70,ROOFTOP,"1, Jalan Permas Jaya Utara, Bandar Baru Permas Jaya, 81750 Masai, Johor, Malaysia",ChIJ0dhK26Fs2jERQRHi53-CWwc,ÆON Permas Jaya Shopping Centre,1.495621,103.817948,1,81750,OK,"atm,establishment,finance,point_of_interest"
71,ROOFTOP,"1, Jalan Desa Tebrau, Taman Desa Tebrau, 81100 Johor Bahru, Johor, Malaysia",ChIJx8-KoSFs2jERlFrUVqE5gl4,ÆON Tebrau City Shopping Centre,1.5496967,103.7967216,1,81100,OK,"establishment,point_of_interest,shopping_mall"
72,GEOMETRIC_CENTER,"L2.13 Level 2 Plaza Angsana No. 52 Jalan Tampoi Pusat Bandar Tampoi, Bandar Baru Uda, 81200 Johor Bahru, Johor, Malaysia",ChIJH9Llir9y2jERFryY-pcx09Y,Angsana Johor Bahru Mall,1.495124,103.705895,2,81200,OK,"establishment,point_of_interest,shopping_mall"
73,GEOMETRIC_CENTER,"Malaysia, Johor, Johor Bahru, L4-20, Jalan Tun Abdul RazakDanga City Mall邮政编码: 80000",ChIJcRMOrssS2jERU2e2AZOthDk,Danga City Mall,1.474376,103.755387,1,80000,OK,"establishment,point_of_interest,shopping_mall"
74,GEOMETRIC_CENTER,"Jalan Trus, Bandar Johor Bahru, 80000 Johor Bahru, Johor, Malaysia",ChIJj17Dt8IS2jERpo41GcSpoJE,Galleria@Kotaraya,1.4592071,103.7633351,1,80000,OK,"establishment,point_of_interest,shopping_mall"
75,ROOFTOP,"1720 Texas Ave, Bryan, TX 77802, USA",ChIJbdsrRn-BRoYR4IA8RmxPL8Y,Holiday Plaza,30.6528383,-96.3646582,1,77802,OK,"establishment,lodging,point_of_interest"
76,ROOFTOP,"33, Jalan Harmonium 23/13, Taman Desa Tebrau, 81100 Johor Bahru, Johor, Malaysia",ChIJe9c4GyBs2jERc0GAMX_D0Lc,IKEA Tebrau,1.5519248,103.7994554,1,81100,OK,"establishment,furniture_store,home_goods_store,point_of_interest,store"
77,ROOFTOP,"106, 108, Jalan Wong Ah Fook, Bandar Johor Bahru, 80000 Johor Bahru, Johor, Malaysia",ChIJZ6vyT8MS2jERZbHkx3oUHnQ,Johor Bahru City Square,1.4618353,103.7639233,1,80000,OK,"establishment,point_of_interest,shopping_mall"
78,GEOMETRIC_CENTER,"Level 3 BUTIK ARMADA LANUN JOHOR, KOMTAR JBCC, City Centre, 80000 Johor Bahru, Johor, Malaysia",ChIJIyLLVcMS2jER0xwvgEmFUk4,Komtar JBCC,1.4630765,103.7629184,1,80000,OK,"establishment,point_of_interest,shopping_mall"
79,ROOFTOP,"33, Jalan Seladang, Taman Abad, 80250 Johor Bahru, Johor, Malaysia",ChIJZ6EbFTBt2jERflX9tqaEOF0,KSL City,1.4855339,103.7623083,1,80250,OK,"establishment,lodging,point_of_interest,shopping_mall"
80,GEOMETRIC_CENTER,"Jalan Bertingkat Skudai, Taman Bukit Mewah, 81200 Johor Bahru, Johor, Malaysia",ChIJIf-ff_9y2jERb19MfG9Nuw0,Paradigm Mall Johor Bahru,1.5158909,103.6854686,1,81200,OK,"establishment,point_of_interest,shopping_mall"
81,ROOFTOP,"Plaza Pelangi, Lot 3.29 & 3.29A, Level, 3, Jalan Kuning, Taman Pelangi, 80400 Johor Bahru, Johor, Malaysia",ChIJEVipoi1t2jERSAPBSPOsOpg,Pelangi Plaza,1.47998,103.7652085,1,80400,OK,"establishment,point_of_interest,shopping_mall"
82,ROOFTOP,"15 St Pauls Pl, Great Neck, NY 11021, USA",ChIJHdnJ9aKJwokR4JKhvdtLEP0,Sentosa Plaza,40.788836,-73.7221528,1,11021,OK,"establishment,health,point_of_interest"
83,ROOFTOP,"4, Jalan Kota Tinggi, 81800 Ulu Tiram, Johor, Malaysia",ChIJyTOORDVv2jERXgIKHliQDmE,Today's Mall,1.6085296,103.8211432,1,81800,OK,"establishment,point_of_interest,shopping_mall"
84,GEOMETRIC_CENTER,"Kampung Masjid Lama, 86000 Kluang, Johor, Malaysia",ChIJAQDAubBt0DER75_Ka-8icK8,BCB Plaza,2.0354804,103.3229051,1,86000,OK,"establishment,point_of_interest,shopping_mall"
85,GEOMETRIC_CENTER,"Jalan Rambutan, Taman Suria, 86000 Kluang, Johor, Malaysia",ChIJF0wwO65t0DERDAwUFJpUux8,Kluang Mall,2.040068,103.3205093,1,86000,OK,"establishment,point_of_interest,shopping_mall"
86,GEOMETRIC_CENTER,"Jalan Mata Kucing, Kampung Masjid Lama, 86000 Kluang, Johor, Malaysia",ChIJZ_ltIrFt0DERMcpzJKp4Mv0,Kluang Parade,2.0359826,103.320719,1,86000,OK,"establishment,movie_theater,point_of_interest"
87,ROOFTOP,"1895 14th Ave SE, Albany, OR 97322, USA",ChIJAeZwgLxswFQRRi6WRVV1z8w,Heritage Mall,44.629862,-123.080172,1,97322,OK,"establishment,point_of_interest,shopping_mall"
88,GEOMETRIC_CENTER,"Bandar Indahpura, 81000 Kulai, Johor, Malaysia",ChIJAYXRIel52jEROJztI31cKfk,ÆON Mall Kulaijaya,1.6407066,103.6174969,1,81000,OK,"establishment,point_of_interest,shopping_mall"
89,GEOMETRIC_CENTER,"LG-01, Lower Ground Floor, Lebuh Putra Utama, Johor, Bandar Putra, 81000, Malaysia",ChIJmQ5JFMx72jER6SVA4Lu05ds,IOI Mall Kulai,1.6479829,103.6263922,1,81000,OK,"establishment,point_of_interest,shopping_mall"
90,GEOMETRIC_CENTER,"Jalan Premium Outlets Indahpura, 81000 Kulai, Johor, Malaysia",ChIJi9eLLjp32jERCIzJKhsQF7k,Johor Premium Outlets,1.6036577,103.6217117,1,81000,OK,"establishment,point_of_interest,shopping_mall"
91,ROOFTOP,"Lot 1566, 20, Jalan Besar, Taman Mewah, 81000 Kulai, Johor, Malaysia",ChIJcdGR_KV52jER0QGlXt-kusE,Kulai Centre Point[3],1.661671,103.603182,1,81000,OK,"establishment,point_of_interest,shopping_mall"
92,ROOFTOP,"69, Jalan Ali, Pekan Muar, 84000 Muar, Johor, Malaysia",ChIJqam9lw-50TERvkqdhvcILoM,Wetex Parade,2.0442051,102.5664675,1,84000,OK,"establishment,point_of_interest,shopping_mall"
93,GEOMETRIC_CENTER,"Bandar Penawar, 81930 Kota Tinggi, Johor, Malaysia",ChIJVQ9aqDtM2jERBke0FwaS1kg,SKS City Mall Desaru,1.5737371,104.206373,1,81930,OK,"establishment,point_of_interest,shopping_mall"
94,ROOFTOP,"Pontian Plaza, Kampung Atap, 82000 Pontian District, Johor, Malaysia",ChIJDcEel3eY0DERf0b8w22jlXg,Plaza Pontian,1.4812175,103.3922154,1,82000,OK,premise
95,APPROXIMATE,"Segamat District, Johor, Malaysia",ChIJU5xYLVTSzzERtYCJJm47dak,Segamat Central,2.50346,102.8207542,1,,OK,"locality,political"
96,ROOFTOP,"Aman Central, Darul Aman Highway, Kampung Lubok Peringgi, 05100 Alor Setar, Kedah, Malaysia",ChIJpRemiblESzARdkytmmL-ofQ,Alor Setar Mall,6.1251054,100.3663971,1,5100,OK,"establishment,point_of_interest,shopping_mall"
97,ROOFTOP,"Aman Central, 1, Darul Aman Highway, Kampung Lubok Peringgi, 05100 Alor Setar, Kedah, Malaysia",ChIJMwnPHrpESzARN6mVGqP3S5Y,Aman Central,6.1249697,100.3664572,1,5100,OK,premise
98,GEOMETRIC_CENTER,"Jalan Tunku Ibrahim, Bandar Alor Setar, 05000 Alor Setar, Kedah, Malaysia",ChIJw9j5qL9ESzARDYG3ix5-iWg,City Plaza Alor Setar,6.1177987,100.3700966,1,5000,OK,"establishment,point_of_interest,shopping_mall"
99,ROOFTOP,"2716 N Westmoreland Rd, Dallas, TX 75212, USA",ChIJFeOxd-eDToYRoKjPeieSuVo,Star Parade,32.7761666,-96.8735709,1,75212,OK,"establishment,point_of_interest"
100,ROOFTOP,"15 St Pauls Pl, Great Neck, NY 11021, USA",ChIJHdnJ9aKJwokR4JKhvdtLEP0,Sentosa Plaza,40.788836,-73.7221528,1,11021,OK,"establishment,health,point_of_interest"
101,ROOFTOP,"29, Pekan Jitra 3, Pekan Jitra, 06000 Jitra, Kedah, Malaysia",ChIJ36e7SjVYSzARzYYwpAKfgNg,Jitra Mall,6.261109,100.4185303,1,6000,OK,"establishment,point_of_interest,shopping_mall"
102,GEOMETRIC_CENTER,"No.4, Jalan KLC Satu (1),, Kulim Landmark Central, 09000 Kulim, Kedah, Malaysia",ChIJseBb-vDLSjARq4o7L-M0IKk,Kulim Landmark Central[4],5.3847285,100.5460844,2,9000,OK,"establishment,lodging,point_of_interest"
103,ROOFTOP,"Amanjaya, 1, Jalan Jati 1, Bandar Amanjaya, 08000 Sungai Petani, Kedah, Malaysia",ChIJDZjJq58pSzAR17RztZhMQ-E,Amanjaya Mall[5],5.6738968,100.5095776,1,8000,OK,"establishment,point_of_interest,shopping_mall"
104,RANGE_INTERPOLATED,"6 Central Square, Cambridge, MA 02139, USA",Eio2IENlbnRyYWwgU3F1YXJlLCBDYW1icmlkZ2UsIE1BIDAyMTM5LCBVU0EiGhIYChQKEglxGH9PUXfjiRHF1zjJMQDYNRAG,Central Square[6],42.365696,-71.1042809,1,2139,OK,street_address
105,GEOMETRIC_CENTER,"Taman Sejati Indah, 08000 Sungai Petani, Kedah, Malaysia",ChIJfZL1tUrWSjARoYglzxmHPc0,Petani Parade[7],5.612924,100.4849021,1,8000,OK,"establishment,point_of_interest,shopping_mall"
106,ROOFTOP,"507 Plaza Dr, Monett, MO 65708, USA",ChIJM_6lrhi4yIcRlowGiUUR7Fo,SP Plaza[8],36.912351,-93.910315,2,65708,OK,"establishment,movie_theater,point_of_interest"
107,ROOFTOP,"1026 Palisades Blvd # 9, Osage Beach, MO 65065, USA",ChIJO858ik3bxIcRH-QB7h6n4YU,Village Mall[9],38.1138252,-92.6882529,1,65065,OK,"establishment,point_of_interest,shopping_mall"
108,GEOMETRIC_CENTER,"Lot S-42, Second Floor, Aeon Mall Kota Bahru,, Kampung Sireh, Jalan Jambatan Sultan Yahya Petra, 15050 Kota Bahru, Kelantan, Malaysia",ChIJ0R5cJZOvtjERRUsMNzgqohQ,ÆON Mall Kota Bharu,6.111433,102.231332,2,15050,OK,"establishment,food,point_of_interest,restaurant"
109,GEOMETRIC_CENTER,"Lot G41 Ground Floor, Pt101 & 102, Jalan Hamzah, Seksyen 16, 15050 Kota Bharu, Kelantan, Malaysia",ChIJg_561emvtjEReNrqDAkDBF8,KB Mall,6.1174907,102.2406355,1,15050,OK,"establishment,point_of_interest,store"
110,GEOMETRIC_CENTER,"Jalan Kemus / Sempang Ampat, 78000 Alor Gajah, Melaka, Malaysia",ChIJ7eg6HasDzjERCs5TACadUM4,Freeport A'Famosa Outlet (FAO),2.4444129,102.2065759,1,78000,OK,"establishment,point_of_interest,shopping_mall"
111,GEOMETRIC_CENTER,"Melaka Shopping Centre, Lebuh Ayer Keroh, 75450, Melaka, Malaysia",ChIJNeuezJXv0TERt8FKFaQtOGQ,ÆON Mall Melaka (Ayer Keroh),2.234211,102.282386,1,75450,OK,"establishment,home_goods_store,point_of_interest,store"
112,ROOFTOP,"2, Jalan Legenda, Taman 1- Legenda, 75400 Melaka, Malaysia",ChIJYSuWmy7w0TER_OZpQ4xr9tQ,ÆON Mall Bandaraya Melaka,2.2140801,102.2471274,1,75400,OK,"establishment,point_of_interest,shopping_mall"
113,ROOFTOP,"04, Hatten Square, 1, Jalan Merdeka, Bandar Hilir, 75000 Malacca, Melaka, Malaysia",ChIJhXSb5-Dx0TERyKwfXu_R9LE,Dataran Pahlawan Melaka Megamall,2.1900741,102.2524606,1,75000,OK,"establishment,point_of_interest,shopping_mall"
114,GEOMETRIC_CENTER,"Jalan Melaka Raya 23, Hatten City, 75000 Melaka, Malaysia",ChIJe41XzwTu0TERWyzxuEakSZE,Elements Mall Malacca,2.1829906,102.2626416,1,75000,OK,"establishment,point_of_interest,shopping_mall"
115,GEOMETRIC_CENTER,"Jalan Hang Tuah, 75300 Melaka, Malaysia",ChIJd5APvdDx0TER9zhA8atVsbI,Hang Tuah Plaza,2.2026177,102.2477948,1,75300,OK,"establishment,point_of_interest,shopping_mall"
116,ROOFTOP,"G74 Mahkota Parade, No.1, Jalan Merdeka, 75000 Malacca, Malaysia",ChIJh70zOuHx0TEREAXiC_4iAcM,Mahkota Parade,2.1890524,102.249949,1,75000,OK,"establishment,point_of_interest,store"
117,GEOMETRIC_CENTER,"Lebuh Ayer Keroh, 75450 Melaka, Malaysia",ChIJ5-huwZXv0TERySbdbeQyNqY,Melaka Mall,2.232103,102.2820734,1,75450,OK,"establishment,point_of_interest,shopping_mall"
118,GEOMETRIC_CENTER,"Jalan Tun Ali, 75300 Melaka, Malaysia",ChIJE7fLPtLx0TERAp-ij6Txk8k,Soon Seng Plaza,2.207782,102.2451199,1,75300,OK,"establishment,point_of_interest"
119,GEOMETRIC_CENTER,"Kampung Bunga Paya Pantai, 75100 Melaka, Malaysia",ChIJCRqgSNfx0TERyquQAWjDFn0,The Shore Shopping Gallery,2.202918,102.249781,1,75100,OK,"establishment,point_of_interest,shopping_mall"
120,ROOFTOP,"2965 Gordon Rd, Regina, SK S4S 6H7, Canada",ChIJKyB5ocqgHlMRvfOOT41q3rY,Regina Mall[10],50.4028729,-104.6216267,1,S4S 6H7,OK,"establishment,point_of_interest,shopping_mall"
121,ROOFTOP,"112, Persiaran S2 B1, Seremban 2, 70300 Seremban, Negeri Sembilan, Malaysia",ChIJl3dCKuvnzTERjsPXEP6qFXk,ÆON Seremban 2 Shopping Centre,2.701337,101.912147,1,70300,OK,"establishment,point_of_interest,shopping_mall"
122,GEOMETRIC_CENTER,"Jalan Kuala Pilah, Plaza Ampangan, 70400 Seremban, Negeri Sembilan, Malaysia",ChIJPwBA8vPdzTERM43SnLzdKGA,Angsana Seremban Mall Ampangan,2.723152,101.962179,1,70400,OK,"establishment,point_of_interest,shopping_mall"
123,APPROXIMATE,"Era Square, 70200 Seremban, Negeri Sembilan, Malaysia",ChIJ-ZjwrXndzTERdvW5svfdosE,Era Square,2.725947,101.9316442,1,70200,OK,"political,sublocality,sublocality_level_1"
124,ROOFTOP,"120 NE 27th St # 600, Miami, FL 33137, USA",ChIJo3EzQ6u22YgRJ_1bbZ1WxDM,KM Plaza,25.8022614,-80.1927261,1,33137,OK,"establishment,general_contractor,point_of_interest"
125,GEOMETRIC_CENTER,"Persiaran Ilmu, Bandar Baru Nilai, 71800 Nilai, Negeri Sembilan, Malaysia",ChIJN7EK_JLGzTERZxVcqpdLtwQ,MesaMall Nilai,2.8244141,101.7782858,1,71800,OK,"establishment,point_of_interest,shopping_mall"
126,ROOFTOP,"1751 Palm Beach Lakes Blvd, West Palm Beach, FL 33401, USA",ChIJl5aK6gXW2IgRlp-zMU9R1sk,Palm Mall,26.7252165,-80.0863658,1,33401,OK,"establishment,point_of_interest,shopping_mall"
127,GEOMETRIC_CENTER,"Jln Sg Ujong, 70200 Seremban, Negeri Sembilan, Malaysia",ChIJU3JplYnnzTERm2AvZ9YUdtM,Seremban Gateway,2.7169735,101.9188598,1,70200,OK,"establishment,point_of_interest,shopping_mall"
128,ROOFTOP,"4th, Seremban Prima, Jalan Dato Bandar Tunggal, Bandar Seremban, 70000 Seremban, Negeri Sembilan, Malaysia",ChIJ8-MlKIfdzTER07cBwjmoLyk,Seremban Prima,2.719874,101.9409834,1,70000,OK,"establishment,point_of_interest,shopping_mall"
129,GEOMETRIC_CENTER,"Jalan Lintang, Bandar Seremban, 70000 Seremban, Negeri Sembilan, Malaysia",ChIJM5cwioHdzTERrun_Tkdtn7k,Terminal One Mall,2.722815,101.9369099,1,70000,OK,"establishment,point_of_interest,shopping_mall"
130,ROOFTOP,"1 Gateway Center, Newark, NJ 07102, USA",ChIJr2QUhYNTwokRcyD0VBG86nw,1Gateway,40.7345466,-74.1657199,1,7102,OK,"establishment,point_of_interest"
131,GEOMETRIC_CENTER,"Jalan Ketari, 28700 Bentong, Pahang, Malaysia",ChIJE1Ngfj8FzDERZqtbiWnf5HQ,Bentong Vega Mall (Closed),3.521441,101.9121559,1,28700,OK,"establishment,point_of_interest,shopping_mall"
132,GEOMETRIC_CENTER,"First World Hotel & Plaza, 69000 Genting Highlands, Pahang, Malaysia",ChIJoYUZgPwTzDER4Q_a6zsuEso,First World Plaza,3.4256764,101.7944764,1,69000,OK,"establishment,lodging,point_of_interest"
133,ROOFTOP,"Genting Highlands Resorts, KM13, 69000 Genting Highlands, Pahang, Malaysia",ChIJQwP5jDwUzDERqbMpmoMrOxU,Genting Highland Premium Outlet,3.4030597,101.7820866,1,69000,OK,"establishment,point_of_interest,shopping_mall"
134,ROOFTOP,"4695 Pacific Hwy E, Fife, WA 98424, USA",ChIJByXiLVD_kFQRIsp-PhyYg94,SkyAvenue,47.2433581,-122.3666217,1,98424,OK,"establishment,point_of_interest"
135,GEOMETRIC_CENTER,"Lot 3.09, 3rd Floor, Berjaya Megamall, Jalan Tun Ismail, Sri Dagangan, 25000 Kuantan, Pahang, Malaysia",ChIJ2VXOrpa6yDERSuPkkbk3Afc,Berjaya Megamall,3.815355,103.330557,1,25000,OK,"establishment,movie_theater,point_of_interest"
136,GEOMETRIC_CENTER,"Unit L2-20 & L2-21, Level 2 East Coast Mall Jalan Putra Square 6, Putra Square 25200 Kuantan Pahang MY, Jalan Putra Square 6, 25300 Kuantan, Pahang, Malaysia",ChIJXxhG-JK6yDERAiFDlVbnN-8,East Coast Mall,3.8180215,103.3262739,1,25300,OK,"establishment,point_of_interest,store"
137,GEOMETRIC_CENTER,"Unit G49 & G59 Ground Floor Kuantan Parade, Jalan Haji Abdul Rahman, 25000 Kuantan, Pahang, Malaysia",ChIJmwiZg3-7yDEREO95KCC8QEc,Kuantan Parade,3.8049773,103.3233519,1,25000,OK,"establishment,point_of_interest,shopping_mall"
138,ROOFTOP,"6/1, Putra Square, 25300 Kuantan, Pahang, Malaysia",ChIJL8ndyJO6yDERPPk1Ik4szJc,Kuantan City Mall,3.8174194,103.3280434,1,25300,OK,"establishment,point_of_interest,shopping_mall"
139,ROOFTOP,"Teruntum Complex, 25000 Kuantan, Pahang, Malaysia",ChIJYR1UzYK6yDERw_q63ChBP6o,Teruntum Complex,3.8032162,103.3239878,1,25000,OK,premise
140,GEOMETRIC_CENTER,"Brinchang, 39000 Brinchang, Pahang, Malaysia",ChIJ20W8gqFZyjERxpUMVqPdzGo,Cameron Square Brinchang,4.5080977,101.4079935,1,39000,OK,"establishment,point_of_interest,shopping_mall"
141,GEOMETRIC_CENTER,"Lot F-74, Tingkat 2, Mentakab Star Mall, No.1, Jalan Star City 1, Star City, 28400 Mentakab, Pahang, Malaysia",ChIJzxUKzBO6zjERVgo96TTJPoo,Mentakab Star Mall,3.471256,102.331764,1,28400,OK,"establishment,movie_theater,point_of_interest"
142,GEOMETRIC_CENTER,"Jalan Tengku Ismail, 28000 Temerloh, Pahang, Malaysia",ChIJsYQx1JS4zjER5SozYqan2Cw,Temerloh Mall,3.4410785,102.4154373,1,28000,OK,"establishment,point_of_interest,shopping_mall"
143,ROOFTOP,"LOT 3-16 & 3-17,3RD FLOOR,1ST AVENUE, 128, Jalan Magazine, 10300 George Town, Pulau Pinang, Malaysia",ChIJM7sSWZTDSjARCG3wN46uxYg,1st Avenue Mall,5.41336,100.331436,1,10300,OK,"establishment,point_of_interest,store"
144,ROOFTOP,"87 Wireless Rd, Khwaeng Lumphini, Khet Pathum Wan, Krung Thep Maha Nakhon 10330, Thailand",ChIJGcZvpN6e4jARHLoBiwtSryg,All Seasons Place,13.7391485,100.547313,1,10330,OK,"establishment,point_of_interest"
145,GEOMETRIC_CENTER,"Persiaran Bukit Jambul 2, Bukit Jambul, 11900 Bayan Lepas, Pulau Pinang, Malaysia",ChIJP5xhxDjASjARFoc4urGIM-k,Bukit Jambul Complex[11],5.334308,100.280715,1,11900,OK,"establishment,point_of_interest"
146,ROOFTOP,"70-1-12, D' Piazza Mall Jalan Mahsuri, Bayan Baru, 11900 Bayan Lepas, Pulau Pinang, Malaysia",ChIJNUWW1mrASjAR9tx3i0TJJC4,D'Piazza Mall[12],5.3267983,100.2829765,1,11900,OK,"establishment,food,point_of_interest,restaurant"
147,ROOFTOP,"3015 Waughtown St, Winston-Salem, NC 27107, USA",ChIJhzXj0SmpU4gROcJhOX96lEk,GAMA Supermarket & Departmental Store,36.0788121,-80.1810346,1,27107,OK,"establishment,finance,food,grocery_or_supermarket,point_of_interest,store,supermarket"
149,ROOFTOP,"163-D, Persiaran Gurney, George Town, 10250 George Town, Pulau Pinang, Malaysia",ChIJHTeoOQbDSjARsTHDtwiCS9Y,Gurney Paragon,5.436006,100.3112417,1,10250,OK,"establishment,point_of_interest,shopping_mall"
150,GEOMETRIC_CENTER,"Persiaran Gurney, 10250, Pulau Pinang, Malaysia",ChIJs_HxOQbDSjARN9geIUqQCZQ,Gurney Plaza,5.4346665,100.3146284,1,10250,OK,route
151,GEOMETRIC_CENTER,"10100 George Town, Penang, Malaysia",ChIJ2XnugpbDSjARJDud-jMiUY8,ICT @ Komtar Digital Mall[14],5.4154127,100.3307214,1,10100,OK,"establishment,point_of_interest,shopping_mall"
152,ROOFTOP,"2 Regency Plz #15, Providence, RI 02903, USA",ChIJASGMUg1F5IkR9mewu7n9gJI,Island Plaza[15],41.8208084,-71.4187374,1,2903,OK,"establishment,point_of_interest"
153,GEOMETRIC_CENTER,"Lebuh Tek Soon, George Town, 10100 George Town, Pulau Pinang, Malaysia",ChIJJWhPR5TDSjARR9SQ7nXQF0Y,Komtar,5.4139579,100.3311548,1,10100,OK,"establishment,point_of_interest,shopping_mall"
154,GEOMETRIC_CENTER,"Jalan Dato Keramat, George Town, 10150 George Town, Pulau Pinang, Malaysia",ChIJ2ziG27jDSjARhoP6nQ0i4pE,M Mall O2O,5.4119159,100.3260165,1,10150,OK,"establishment,point_of_interest,shopping_mall"
155,ROOFTOP,"16 Ericsson Pl, New York, NY 10013, USA",ChIJuY0CN_VZwokR_eSBw6PeLDw,One Precinct[16],40.7203693,-74.0069692,1,10013,OK,"establishment,point_of_interest,police"
156,RANGE_INTERPOLATED,"17, Persiaran Gurney, George Town, 10250 George Town, Pulau Pinang, Malaysia",EkwxNywgUGVyc2lhcmFuIEd1cm5leSwgR2VvcmdlIFRvd24sIDEwMjUwIEdlb3JnZSBUb3duLCBQdWxhdSBQaW5hbmcsIE1hbGF5c2lhIhoSGAoUChIJhT2TfKfDSjARcTnQZZlVoTMQEQ,Penang Plaza[17],5.430665,100.3196155,1,10250,OK,street_address
157,ROOFTOP,"144, Jalan Dato Keramat, George Town, 10150 George Town, Pulau Pinang, Malaysia",ChIJx4NOur_DSjARgnX41oDHC9g,Penang Times Square,5.4122898,100.3253729,1,10150,OK,"establishment,point_of_interest,shopping_mall"
158,GEOMETRIC_CENTER,"NO 33-G-50 GROUND FLOOR JALAN DR LIM CHWEE LEONG PULAU PINANG, George Town, 10100 George Town, Pulau Pinang, Malaysia",ChIJz0hCIpTDSjARnkUAoFdUzMw,Prangin Mall,5.4141702,100.3315125,1,10100,OK,"establishment,point_of_interest,store"
159,ROOFTOP,"LG-12A, Queensbay Mall, 100, Persiaran Bayan Indah, 11900 Bayan Lepas, Pulau Pinang, Malaysia",ChIJM9-dQfbASjARRVPI8nLX1Po,Queensbay Mall,5.334841,100.3064029,1,11900,OK,"establishment,point_of_interest,store"
160,GEOMETRIC_CENTER,"1b-18-3a, changkat batu maung 1 southbay plaza, 11900 Bayan Lepas, Malaysia",ChIJK-IOBrm_SjARx8rKmbKao4w,Southbay Plaza[18],5.279731,100.285899,1,11900,OK,"establishment,lodging,point_of_interest"
161,GEOMETRIC_CENTER,"Jalan Seri Tanjung Pinang 10470 Tanjong Tokong, Penang Malaysia, Malaysia",ChIJXb6HaCTDSjARjZhU6LZAiBA,Straits Quay,5.4582724,100.3132491,2,,OK,"establishment,point_of_interest,shopping_mall"
162,ROOFTOP,"19-B, Medan Angsana 1, Bandar Baru Air Itam, 11500 Ayer Itam, Pulau Pinang, Malaysia",ChIJrz-owIrBSjARUh5-emsGHKM,Sunshine Farlim[19],5.389016,100.2835379,1,11500,OK,"establishment,point_of_interest,spa"
163,ROOFTOP,"1439, 108 W Walnut St, Decatur, TX 76234, United States",ChIJeyHKgeuSTYYRCMazacY3N7s,Sunshine Square,33.2349151,-97.5869213,1,76234,OK,"clothing_store,establishment,point_of_interest,store"
164,GEOMETRIC_CENTER,"Lebuh Tunku Kudin 3, 11700 Gelugor, Pulau Pinang, Malaysia",ChIJ9QZIaHDBSjAR6cc61_RZX80,Udini Square,5.3782648,100.3141407,1,11700,OK,"establishment,point_of_interest,shopping_mall"
165,GEOMETRIC_CENTER,"Malaysia, Penang, Bukit Mertajam, 20, LORONG TAMAN BUKIT MINYAK 1,TAMAN MINYAK邮政编码: 14000",ChIJd0iVTAvISjARPzJ8xJQYomE,AEON Mall Bukit Mertajam[20],5.325606,100.4443021,1,14000,OK,"establishment,lodging,point_of_interest,real_estate_agency,travel_agency"
166,GEOMETRIC_CENTER,"1688-F8, Jalan Perusahaan, Highway Auto-city, 13600 Perai, Pulau Pinang, Malaysia",ChIJzT4LUdDHSjARrdCODy4xUmM,Auto City Juru,5.3383567,100.4306214,1,13600,OK,"establishment,point_of_interest"
167,GEOMETRIC_CENTER,"733, Jalan Cassia Barat 2, 14110 Bandar Cassia, Penang, Malaysia",ChIJEzqvkN-5SjARYVj8cOHO0qc,Design Village,5.2439078,100.4370504,1,14110,OK,"establishment,point_of_interest,shopping_mall"
168,RANGE_INTERPOLATED,"21, Jln Icon City, Bukit Tengah, 14000 Bukit Mertajam, Pulau Pinang, Malaysia",Ek0yMSwgSmxuIEljb24gQ2l0eSwgQnVraXQgVGVuZ2FoLCAxNDAwMCBCdWtpdCBNZXJ0YWphbSwgUHVsYXUgUGluYW5nLCBNYWxheXNpYSIaEhgKFAoSCasEbIHTx0owEQ8ZweZW92hUEBU,Icon City BM[21],5.3446368,100.4343378,1,14000,OK,street_address
169,ROOFTOP,"22, Megamal Pinang, 2828, Jalan Baru, Bandar Perai Jaya, 13600 Butterworth, Pulau Pinang, Malaysia",ChIJMcbSaWPGSjARTixu2I_ML2g,Megamal Pinang[22],5.37676,100.400187,2,13600,OK,"establishment,hair_care,point_of_interest"
170,ROOFTOP,"1000 Kamehameha Hwy, Pearl City, HI 96782, USA",ChIJQ8P0T3NmAHwR5ku4Eum8xzw,Pearl City Mall[23],21.3968568,-157.9771616,1,96782,OK,"establishment,point_of_interest,shopping_mall"
172,GEOMETRIC_CENTER,"Sunway Carnival Mall 3068, Jalan Todak Pusat Bandar Seberang Jaya, Seberang Jaya, 13700 Perai, Pulau Pinang, Malaysia",ChIJd4X4hs3FSjARHHCpdB9aIkA,Sunway Carnival Mall,5.3986848,100.3982261,1,13700,OK,"establishment,point_of_interest,shopping_mall"
173,ROOFTOP,"566, Jalan Arumugan Pillai, 14000 Bukit Mertajam, Pulau Pinang, Malaysia",ChIJqT48UJXISjARAomCiiTdQ1Y,The Summit Bukit Mertajam Plaza[25],5.3659711,100.4615398,1,14000,OK,"establishment,lodging,point_of_interest"
174,GEOMETRIC_CENTER,"Station 18 Lot G59, Aeon Ipoh 18 Shopping Centre, Lot 305553, 305554, 305555, 31650 Menglembu, Perak, Malaysia",ChIJCTGcrLTuyjERBbiafH_1f-4,ÆON Station 18 Shopping Centre,4.5461196,101.0705731,1,31650,OK,"cafe,establishment,food,point_of_interest"
175,GEOMETRIC_CENTER,"Jalan Kuala Kangsar, 31200 Chemor, Negeri Perak, Malaysia",ChIJZzWu2PiSyjERGn0XGrGGf34,ÆON Mall Klebang,4.677465,101.123134,1,31200,OK,"establishment,food,point_of_interest,restaurant,shopping_mall"
176,GEOMETRIC_CENTER,"G46, Ground Floor, Aeon Midtown falim, Falim, 30100 Ipoh, Negeri Perak, Malaysia",ChIJdbGxZY3ryjERKRgHrwOtaR8,ÆON Midtown Falim[26],4.5815794,101.0597798,2,30100,OK,"establishment,food,point_of_interest,restaurant"
177,ROOFTOP,"Greentown Mall, G24, Jalan Raja Ashman Shah, Kampung Kastam Greentown, 31350 Ipoh, Negeri Perak, Malaysia",ChIJ78R3yPTsyjERb3e3aezwf00,Angsana Ipoh Mall,4.602835,101.0946305,1,31350,OK,"establishment,point_of_interest,shopping_mall"
178,GEOMETRIC_CENTER,"3rd Floor, Ipoh Parade, Jalan Abdul Jalil, 30450, Ipoh, Perak, Malaysia",ChIJQZydGmHsyjERqPIhxlQo86E,Ipoh Parade Mall,4.597172,101.090072,1,,OK,"establishment,point_of_interest,shopping_mall"
179,ROOFTOP,"2, Jalan Teh Lean Swee, Taman Ipoh Selatan, 31400 Ipoh, Negeri Perak, Malaysia",ChIJs7Ms0R3tyjERlXknc_qhkh4,Kinta City Shopping Centre,4.613376,101.118516,1,31400,OK,"electronics_store,establishment,home_goods_store,point_of_interest,shopping_mall,store"
180,GEOMETRIC_CENTER,"Jalan Laxamana, 30300 Ipoh, Negeri Perak, Malaysia",ChIJlVasIX3syjERYozWG5-Obcg,Kompleks Yik Foong,4.5972994,101.0814363,1,30300,OK,"establishment,point_of_interest,premise,shopping_mall"
181,ROOFTOP,"17, Tawas Idaman 2, Anjung Tawas Sinaran, 30010 Ipoh, Negeri Perak, Malaysia",ChIJ14sPoxiTyjERx4rJBrKfQkw,Perak IT Mall,4.6603732,101.1095924,1,30010,OK,"establishment,point_of_interest,shopping_mall"
182,GEOMETRIC_CENTER,"lot 312205, Jalan Batu Karang, Taman Kolej Perdana, 31900 Kampar, Negeri Perak, Malaysia",ChIJ9yvIo7viyjER849yN-rr1xk,Tin Village Mall,4.3280664,101.1469817,1,31900,OK,"establishment,point_of_interest,shopping_mall"
183,ROOFTOP,"2-01, Jalan Sekolah, Taman Setia Jaya, 34200 Parit Buntar, Negeri Perak, Malaysia",ChIJq5LZGc2vSjARe-WEyuiLOqE,Kerian Sentral Mall Parit Buntar,5.1276899,100.482992,1,34200,OK,"establishment,movie_theater,point_of_interest"
184,GEOMETRIC_CENTER,"32040 Seri Manjung, Perak, Malaysia",ChIJHTyUjF0syzER6Hk-sKRBIFg,ÆON Seri Manjung Shopping Centre,4.2195197,100.6711521,1,32040,OK,"establishment,point_of_interest,shopping_mall"
185,GEOMETRIC_CENTER,"No. 526, Lebuh SIBC Jalan Teknologi 2, 32610, 32600 Seri Iskander, Perak, Malaysia",ChIJ42lHb9LfyjERcpG9R4eyeUs,D'Mall Seri Iskandar,4.3547557,100.9703958,1,32600,OK,"establishment,point_of_interest,shopping_mall"
186,GEOMETRIC_CENTER,"Lot G16 & G17, Ground Floor AEON TAIPING Lot 8576 & 8577, Jalan Kamunting, 34000 Taiping, Perak, Malaysia",ChIJu92Yh5WuyjERqy5_CJTREio,ÆON Mall Taiping,4.8727001,100.7285192,1,34000,OK,"establishment,point_of_interest,store"
187,ROOFTOP,"11, Persiaran Taiping, 34000 Taiping, Negeri Perak, Malaysia",ChIJc6U27_euyjERCXp3PN8szhg,Taiping Mall,4.8497541,100.7425755,1,34000,OK,"establishment,point_of_interest,shopping_mall"
188,ROOFTOP,"Taiping, Malaysia., No. 36, Jln, Istana Larut, 34000 Taiping, Negeri Perak, Malaysia",ChIJIRqTuJSuyjERGHkwbvpNT9I,Taiping Sentral Mall,4.8657145,100.7314306,2,34000,OK,"establishment,point_of_interest,shopping_mall"
189,ROOFTOP,"2200 N Maple Ave, Rapid City, SD 57701, USA",ChIJmTk8UhpdfYcRCZlpL0QuEyE,Rapid Mall,44.1070816,-103.2126531,1,57701,OK,"establishment,point_of_interest,shopping_mall"
190,GEOMETRIC_CENTER,"89000 Keningau, Sabah, Malaysia",ChIJA_R1JSfvPDIRDMZSQqktubg,Keningau Mall,5.3345222,116.1528559,1,89000,OK,"establishment,point_of_interest,shopping_mall"
191,GEOMETRIC_CENTER,"Sandakan Harbour Square, Sandakan, 90000 Sandakan, Sabah, Malaysia",ChIJ67qB8y7FODIRTSid5jAJRTY,Harbour Mall Sandakan,5.838886,118.119667,1,90000,OK,"establishment,point_of_interest,shopping_mall"
192,ROOFTOP,"6333 Marlboro Pike, District Heights, MD 20747, USA",ChIJCZgAnMG-t4kR2OQ2zEXkOm8,Eastern Plaza,38.8519465,-76.8979285,1,20747,OK,"establishment,point_of_interest,shopping_mall"
193,GEOMETRIC_CENTER,"Lot G333-G335 & G352-G354 Ground Floor One Borneo Hypermall, Jalan Sulaman, 88400 Kota Kinabalu, Sabah, Malaysia",ChIJvVRqQXtrOzIRFupvUkPRnMs,1Borneo Hypermall,6.0359089,116.1288115,1,88400,OK,"establishment,point_of_interest,store"
194,ROOFTOP,"3220 W Ina Rd, Tucson, AZ 85741, USA",ChIJPVP1ONJ01oYR5Uu2r4ra82E,Centre Point,32.338111,-111.0356815,1,85741,OK,"establishment,point_of_interest"
195,GEOMETRIC_CENTER,"Bandar Sierra Bvd., Telipok, 89200 Kota Kinabalu, Sabah, Malaysia",ChIJ5YcyMNVsOzIRjhY-8eJEZHo,Grand Merdeka,6.0619275,116.1810405,2,,OK,"establishment,point_of_interest,shopping_mall"
196,GEOMETRIC_CENTER,"KK Times Square Phase 2 Off Coastal Highway, 88100 Kota Kinabalu, Sabah, Malaysia",ChIJGwRDk79pOzIRjM0ywHUkgDM,Imago KK Times Square,5.9703612,116.0663039,1,88100,OK,"establishment,point_of_interest,shopping_mall"
197,ROOFTOP,"3, Jalan Haji Saman, 88000 Kota Kinabalu, Sabah, Malaysia",ChIJ5bouxIdpOzIRnVVgMTE8Ez0,Jesselton Residences,5.9888126,116.0781929,1,88000,OK,"establishment,point_of_interest"
198,GEOMETRIC_CENTER,"88400 Kota Kinabalu, Sabah, Malaysia",ChIJF1KTaL1pOzIRq5Cgm8ZYsqc,Karamunsing Complex,5.970993,116.075026,1,88400,OK,"establishment,point_of_interest,shopping_mall"
199,GEOMETRIC_CENTER,"5th Floor Megalong Shopping Mall., Pekan Donggongon, 89500 Penampang, Sabah, Malaysia",ChIJ1ZskZ51oOzIRLZjgRkA4N3Q,Mega Long Mall,5.912797,116.1021125,1,89500,OK,"establishment,movie_theater,point_of_interest"
200,GEOMETRIC_CENTER,"Jalan Tun Fuad Stephen, 88000 Kota Kinabalu, Sabah, Malaysia",ChIJl47lj5NpOzIRWdYgNk33guk,Oceanus Waterfront Mall,5.9770282,116.0689252,1,88000,OK,"establishment,point_of_interest,shopping_mall"
201,ROOFTOP,"8744 Sepulveda Blvd, North Hills, CA 91343, USA",ChIJXcWWdLmQwoART_fu3oibZ-I,Plaza Shell,34.2294968,-118.467264,1,91343,OK,"car_repair,establishment,point_of_interest,store"
202,ROOFTOP,"1, Jalan Tun Fuad Stephens, Pusat Bandar Kota Kinabalu, 88000 Kota Kinabalu, Sabah, Malaysia",ChIJZzdhHIZpOzIRr_9CABl11w8,Suria Sabah,5.9869207,116.0772856,1,88000,OK,"establishment,point_of_interest,shopping_mall"
203,GEOMETRIC_CENTER,"Block D, Lot No. 23 & 23A, Ground Floor, Coastal Highway, Kota Kinabalu Times Square, Sabah, 88100 Kota Kinabalu, Malaysia",ChIJ-y_vl7hpOzIR_iEOD7ZN2Mk,Sutera Avenue,5.967525,116.0657448,1,88100,OK,"establishment,point_of_interest,shopping_mall"
204,ROOFTOP,"Wisma merdeka, Pusat Bandar Kota Kinabalu, 88000 Kota Kinabalu, Sabah, Malaysia",ChIJx0YlTo9pOzIRqDvCkT9PFDI,Wisma Merdeka,5.9854959,116.07607,1,88000,OK,"establishment,florist,point_of_interest,store"
205,ROOFTOP,"409, Jln Kampung Baru, 97000 Bintulu, Sarawak, Malaysia",ChIJt56npfXAHTIRW3nVmHLfKhE,Street Mall Bintulu Paragon,3.1698567,113.0493879,2,97000,OK,"establishment,point_of_interest,shopping_mall"
206,GEOMETRIC_CENTER,"97000 Bintulu, Sarawak, Malaysia",ChIJ_ZnV0zbBHTIROMVv66gSveo,Times Square Mega Mall,3.1976144,113.0881229,1,97000,OK,"establishment,point_of_interest,shopping_mall"
207,GEOMETRIC_CENTER,"Kota Samarahan (Link), Kampung Melaban, 94300 Kota Samarahan, Sarawak, Malaysia",ChIJfXcomDai-zERz-25oO6aCkI,Aiman Mall,1.4558211,110.4449781,1,94300,OK,"establishment,point_of_interest,shopping_mall"
208,GEOMETRIC_CENTER,"Jalan Datuk Mohammad Musa, 94300 Kota Samarahan, Sarawak, Malaysia",ChIJDVwlAk-i-zERe-mZeB-flMM,Summer Mall,1.4547453,110.4587823,1,94300,OK,"establishment,point_of_interest,shopping_mall"
209,GEOMETRIC_CENTER,"No 88 Lot 3458 Block 10 KCLD Jalan Datuk Patinggi Ahmad Zaidi Adruce 93150, 93200 Kuching, Sarawak, Malaysia",ChIJ5UbaZnun-zER-OOZjnHDoIo,ÆON Kuching Central,1.5274058,110.3372658,1,93200,OK,"establishment,point_of_interest,shopping_mall"
210,ROOFTOP,"101 Arnould Blvd, Lafayette, LA 70506, USA",ChIJpVEO9jqcJIYRKqlipSvwkVk,Boulevard Shopping Mall,30.201929,-92.0531473,1,70506,OK,"establishment,point_of_interest,shopping_mall"
211,ROOFTOP,"T20, Mall 2 City One Megamall, 1, Jalan Song, Taman Phoning, 93350 Kuching, Sarawak, Malaysia",ChIJV2aCyhSn-zER02e58DpADVM,CityOne Megamall,1.5203427,110.3548548,1,93350,OK,"establishment,point_of_interest,shopping_mall"
212,ROOFTOP,"4050 Tangle Dr # A, Richmond, VA 23228, USA",ChIJy_skpbsVsYkRWGXlEA9vHQw,Crown Square,37.6217817,-77.5014515,1,23228,OK,"establishment,point_of_interest"
213,ROOFTOP,"8650 TX-121, Frisco, TX 75034, USA",ChIJQ-UuI-o8TIYRSTxa3vExea4,EG Mall,33.0970443,-96.808968,2,75034,OK,"bar,establishment,food,point_of_interest,restaurant"
214,ROOFTOP,"600 N Moore St # 45, Electra, TX 76360, USA",ChIJNyZ17rhIU4YRraGyIKnJX3Q,Electra House,34.0305862,-98.9080429,1,76360,OK,"establishment,local_government_office,point_of_interest"
215,GEOMETRIC_CENTER,"Unit No.167, Ground Floor, Emart One Stop Shopping Mall, Batu Kawah, 93250 Sarawak, Malaysia",ChIJX8YcTI4J-zER78vlE9Ejuvo,Emart Batu Kawah One Stop Shopping Mall,1.5067909,110.2987248,1,93250,OK,"establishment,food,point_of_interest,restaurant"
216,GEOMETRIC_CENTER,"93250 Kuching, Sarawak, Malaysia",ChIJOch6lFsJ-zERRTmRZkxKNCM,Genesis Parade,1.5054878,110.2522746,1,93250,OK,"establishment,point_of_interest,shopping_mall"
217,GEOMETRIC_CENTER,"Lorong Lapangan Terbang 2, Green Heights, 93250 Kuching, Sarawak, Malaysia",ChIJbTPON0yn-zERgUx0g5PW0-s,Green Heights Mall,1.50216,110.34631,1,93250,OK,"establishment,point_of_interest,shopping_mall"
218,ROOFTOP,"3826 E Frank Phillips Blvd, Bartlesville, OK 74006, USA",ChIJwS1TW04St4cREhua6NSwJf0,Hills Shopping Mall,36.7506714,-95.9340143,1,74006,OK,"establishment,point_of_interest,shopping_mall"
219,ROOFTOP,"L2-13, Hock Lee Centre, Jalan Datuk Abang Abdul Rahim, 93450 Kuching, Sarawak, Malaysia",ChIJ60QQ5ben-zERihR2cRSjQ2w,Hock Lee Centre (under renovation),1.552648,110.367504,1,93450,OK,"electronics_store,establishment,home_goods_store,point_of_interest,store"
220,GEOMETRIC_CENTER,"Jalan P. Ramlee, 93400 Kuching, Sarawak, Malaysia",ChIJ0_AI0PKn-zERzmtoYYMbm6M,Hopoh Shopping Centre,1.553947,110.340508,1,93400,OK,"establishment,point_of_interest,shopping_mall"
221,GEOMETRIC_CENTER,"Jalan Kuching Ranger Depot, Kota Sentosa, 93250 Kuching, Sarawak, Malaysia",ChIJPWEWmpyg-zERGXli85yk8RA,Kuching Sentral,1.4816929,110.3327724,1,93250,OK,"establishment,point_of_interest,travel_agency"
222,ROOFTOP,"41, Jalan P. Ramlee, 93400 Kuching, Sarawak, Malaysia",ChIJrYkW_fKn-zERFX83HXrGMmc,Majma Mall,1.55517,110.3398883,1,93400,OK,"establishment,point_of_interest,shopping_mall"
223,GEOMETRIC_CENTER,"Taman Matang Jaya, 93050 Kuching, Sarawak, Malaysia",ChIJnRQszNkH-zERbcIXvYrntXw,Matang Mall,1.5746029,110.2960852,1,93050,OK,"establishment,point_of_interest,shopping_mall"
224,ROOFTOP,"55, Lor Moyan Utama 1, 93250 Kuching, Sarawak, Malaysia",ChIJOVsCe-IL-zERtJbvZiNtCQI,Moyan Square,1.4991868,110.251008,1,93250,OK,"establishment,point_of_interest,shopping_mall"
225,ROOFTOP,"11430, Jalan Song, Tabuan Heights, 93350 Kuching, Sarawak, Malaysia",ChIJrc_T1BWn-zERGWo82CjtwzQ,OneJaya Lifestyle Mall,1.5180512,110.3658551,1,93350,OK,"establishment,point_of_interest"
226,ROOFTOP,"Lot, 9, Lor Stutong 16, Kampung Stutong Baru, 93350 Kuching, Sarawak, Malaysia",ChIJXRDckiin-zERbiGD1TSr1ug,One TJ ICT Shopping Complex,1.5064467,110.3746877,1,93350,OK,"electronics_store,establishment,point_of_interest,store"
227,GEOMETRIC_CENTER,"Papillon Street, Chiyo, Hakata-ku, Fukuoka-shi, Fukuoka-ken 812-0044, Japan",ChIJEVRnfNyRQTUR-3i5HWJnIL4,Papillon Street Mall,33.6018732,130.4143514,1,812-0044,OK,route
228,ROOFTOP,"88, Jalan Pearl, 93000 Kuching, Sarawak, Malaysia",ChIJKXOlDu6n-zERSKBAccqMThA,Plaza Merdeka,1.5582977,110.3442148,1,93000,OK,"establishment,point_of_interest,shopping_mall"
229,GEOMETRIC_CENTER,"Jalan Tunku Abdul Rahman, 93100 Kuching, Sarawak, Malaysia",ChIJxTI1fumn-zERWFarXNd_Ggk,Riverside Shopping Complex,1.557896,110.351547,1,93100,OK,"establishment,point_of_interest,shopping_mall"
230,GEOMETRIC_CENTER,"Jalan Tunku Abdul Rahman, 93100 Kuching, Sarawak, Malaysia",ChIJ1acsHuqn-zERfcZi5B8SikU,Sarawak Plaza,1.557794,110.3534122,1,93100,OK,"atm,establishment,finance,point_of_interest"
231,ROOFTOP,"64, Jalan Simpang Tiga, Kampung Kenyalang Park, 93300 Kuching, Sarawak, Malaysia",ChIJ-51uE6Cn-zERdPThflnpP_A,ST3 Mall,1.5360097,110.3561021,1,93300,OK,"establishment,point_of_interest,shopping_mall"
232,GEOMETRIC_CENTER,"304, Persiaran, 93300 Kuching, Sarawak, Malaysia",ChIJNfuDY6Cn-zERvKQMPnRpF04,The Spring Shopping Mall,1.5357959,110.3579725,1,93300,OK,"establishment,point_of_interest,shopping_mall"
233,ROOFTOP,"57, Jalan Tunku Abdul Rahman, 93100 Kuching, Sarawak, Malaysia",ChIJMxI1GOqn-zERe5fd5SEvu3M,Tun Jugah Mall,1.5573089,110.353401,2,93100,OK,"establishment,point_of_interest,shopping_mall"
234,GEOMETRIC_CENTER,"Ground Floor, Jalan Wan Alwi, 93350 Kuching, Sarawak, Malaysia",ChIJSQayGQWn-zERvJDO9nzBZsE,Vivacity Megamall,1.5272437,110.3685495,1,93350,OK,"clothing_store,establishment,food,grocery_or_supermarket,movie_theater,point_of_interest,shopping_mall,store"
235,ROOFTOP,"Wisma Saberkas, 3, Jalan Tun Abang Haji Openg, Kuching, Sarawak, Malaysia",ChIJN6tB-YKn-zER0w8kMhvUhxM,Wisma Saberkas,1.5371692,110.3401903,1,,OK,premise
236,ROOFTOP,"Wisma Satok, Jalan Satok, 93400 Kuching, Sarawak, Malaysia",ChIJS7Wvy_Sn-zER2ogeJaGRwL0,Wisma Satok,1.5535837,110.3351635,1,93400,OK,premise
237,ROOFTOP,"Jl. A. Mappanyukki No.50 F, Kunjung Mae, Mariso, Kota Makassar, Sulawesi Selatan 90125, Indonesia",ChIJnymczVkdvy0RZ6OzzQD2Mao,Wisma Sentosa,-5.1525942,119.4145408,1,90125,OK,"establishment,lodging,point_of_interest"
238,GEOMETRIC_CENTER,"Pekan Limbang, 98700 Limbang, Sarawak, Malaysia",ChIJJXwF80iPIjIRfl-lKhk9T5c,Limbang Plaza,4.755131,115.0093782,1,98700,OK,"establishment,point_of_interest"
239,ROOFTOP,"Lot 1264, Jalan Miri Pujut, Bintang Jaya, 98000 Miri, Sarawak, Malaysia",ChIJwU1sCCxPHzIR38IwE7G8EgQ,Bintang Megamall,4.3970478,113.9932847,1,98000,OK,"establishment,point_of_interest,shopping_mall"
240,ROOFTOP,"2528, Jalan Boulevard 1b, Boulevard Commercial Centre, 98000 Miri, Sarawak, Malaysia",ChIJISnM_-dOHzIRQr_Q1a3yK7Q,Boulevard Shopping Mall Miri,4.415049,114.01306,1,98000,OK,"establishment,point_of_interest,shopping_mall"
241,ROOFTOP,"3451 Dogwood Rd, El Centro, CA 92243, USA",ChIJTb53w41m14ARxUrvxyP1YIg,Imperial Mall,32.763788,-115.530637,1,92243,OK,"establishment,point_of_interest,shopping_mall"
242,GEOMETRIC_CENTER,"Lot 8755, Block 1, Jalan Miri Bintulu, Lambir Land District, 98000 Miri, Sarawak, Malaysia",ChIJl1soO0lIHzIRFAOk05BxpI8,Mega Emart Riam,4.3437625,113.9930577,1,98000,OK,"establishment,food,grocery_or_supermarket,point_of_interest,shopping_mall,store"
244,GEOMETRIC_CENTER,"Jalan Pasar Lutong, Lutong, 98000 Miri, Sarawak, Malaysia",ChIJTazKyilOHzIR6R1ymSgnA_Q,MYY Mall,4.4708271,114.0101457,1,98000,OK,"establishment,point_of_interest,shopping_mall"
245,GEOMETRIC_CENTER,"98000 Miri, Sarawak, Malaysia",ChIJk_8V7C1PHzIR2EQYX_uYF6I,Permaisuri Imperial City Mall,4.4005281,113.990354,1,98000,OK,"establishment,point_of_interest,shopping_mall"
246,GEOMETRIC_CENTER,"Lot 3244, Block 11, KBLD Bandar Baru Permy Jaya, 98000 Miri, Sarawak, Malaysia",ChIJNQ23dAVOHzIR0_0e66Y2yEE,Permy Mall,4.4502985,114.0384475,1,98000,OK,"establishment,point_of_interest,shopping_mall"
247,GEOMETRIC_CENTER,"Jalan Merbau, 98000 Miri, Sarawak, Malaysia",ChIJ1xpDyjJPHzIR1PGW-L9My0c,Soon Hup Tower,4.397014,113.9877382,1,98000,OK,"establishment,point_of_interest,shopping_mall"
248,ROOFTOP,"Jl. M. T. Haryono No.8-9, Pusat Ps., Medan Kota, Kota Medan, Sumatera Utara 20212, Indonesia",ChIJfUn_3rYxMTARVw_rYkxCvhk,Medan Mall,3.5879474,98.6867037,1,20212,OK,"establishment,point_of_interest,shopping_mall"
249,ROOFTOP,"7700 E Kellogg Dr, Wichita, KS 67207, USA",ChIJZfKSnrz8uocRSKb4c3PF3dI,Eastern Mall,37.6832262,-97.2469947,1,67207,OK,"establishment,point_of_interest,shopping_mall"
250,ROOFTOP,"301 N Lincoln Rd #200, Escanaba, MI 49829, USA",ChIJjRqIdoy8TU0Ri1bOSP8zxEQ,Delta Mall,45.7482647,-87.0817195,1,49829,OK,"establishment,point_of_interest,shopping_mall"
251,ROOFTOP,"Jl. M. T. Haryono No.8-9, Pusat Ps., Medan Kota, Kota Medan, Sumatera Utara 20212, Indonesia",ChIJfUn_3rYxMTARVw_rYkxCvhk,Medan Mall,3.5879474,98.6867037,1,20212,OK,"establishment,point_of_interest,shopping_mall"
252,ROOFTOP,"No.16, 18 ground floor, 9A, Jln Wawasan, 96000 Sibu, Sarawak, Malaysia",ChIJPfk0XT9_9zERqQAiwUyeVkg,Medan Unicity,2.3427447,111.8315164,1,96000,OK,"establishment,food,point_of_interest"
253,GEOMETRIC_CENTER,"Jln Kampung Nyabor, Pekan Sibu, 96000 Sibu, Sarawak, Malaysia",ChIJnwUoM9x_9zERbQkSK0LpiuQ,Sarawak House Shopping Complex,2.289487,111.8299852,2,96000,OK,"establishment,point_of_interest"
254,GEOMETRIC_CENTER,"Jalan Tunku Abdul Rahman, Pekan Sibu, 96000 Sibu, Sarawak, Malaysia",ChIJ45HbCiOA9zERo6dhdpxfM_s,Star Mega Mall,2.3049171,111.86407,1,96000,OK,"establishment,point_of_interest,shopping_mall"
255,ROOFTOP,"Wisma Sanyan, Pekan Sibu, 96000 Sibu, Sarawak, Malaysia",ChIJhX-1vNt_9zERgTJ41L75uWk,Wisma Sanyan,2.290556,111.825278,1,96000,OK,premise
256,GEOMETRIC_CENTER,"Jalan Mamanda 3, Taman Dato Ahmad Razali, 68000 Ampang, Selangor, Malaysia",ChIJARbLyKk3zDERvtwr2qk3obI,Ampang Point,3.157803,101.750963,1,68000,OK,"establishment,point_of_interest,shopping_mall"
257,GEOMETRIC_CENTER,"Jalan Cempaka, Taman Cempaka Ampang, Selangor, 68000, Malaysia",ChIJqdxcUVk2zDERTdjv7tDahDE,Axis Atrium,3.136697,101.747061,1,68000,OK,"establishment,point_of_interest,shopping_mall"
258,ROOFTOP,"Jalan Dagang 5, Taman Dagang, 68000 Ampang, Selangor, Malaysia",ChIJxV2O5_42zDERDLZBbx_QiE8,Galaxy Ampang,3.1469408,101.7557673,1,68000,OK,"establishment,premise"
259,GEOMETRIC_CENTER,"Jalan Sabah, Taman Melawati, 53100 Ampang, Selangor, Malaysia",ChIJ8Si1b0o4zDERkLqhHn2rvM0,Melawati Mall[27],3.210577,101.748695,1,53100,OK,"establishment,point_of_interest,shopping_mall"
260,ROOFTOP,"Pandan Capital, Persiaran Mpaj, Pandan Indah, 55100 Ampang, Wilayah Persekutuan Kuala Lumpur, Malaysia",ChIJ9TvqX4o2zDERmetNfbDTNjI,Pandan Capital Mall,3.128888,101.7538779,1,55100,OK,"establishment,point_of_interest,shopping_mall"
261,ROOFTOP,"670 Spectrum Center Dr, Irvine, CA 92618, USA",ChIJR892-fvn3IARQnnqgTu-Phc,Spectrum Shopping Mall,33.650994,-117.7438903,2,92618,OK,"establishment,point_of_interest,shopping_mall"
262,GEOMETRIC_CENTER,"Jalan S 1/1, Tun Hussein Onn, 43200 Batu 9 Cheras, Selangor, Malaysia",ChIJAfJySc00zDERSmbCmFHS2m4,ÆON Cheras Selatan Shopping Centre,3.03339,101.76482,1,43200,OK,"department_store,establishment,point_of_interest,shopping_mall,store"
263,GEOMETRIC_CENTER,"LOT G23 GF AEON MAHKOTA CHERAS, 21/9, Jalan Temenggung, Bandar Mahkota Cheras, 43200 Selangor, Malaysia",ChIJzbHOMpg0zDERKvz-MgYKEsU,ÆON Mahkota Cheras Shopping Centre,3.0546057,101.787275,1,43200,OK,"establishment,point_of_interest,store"
264,GEOMETRIC_CENTER,"RZ EVO ""Homestay' SOHO Komplek EVO, Jalan Pusat Bandar 2, Bandar Baru Bangi, 43560 Bangi, Selangor, Malaysia",ChIJo5DN89LLzTERdVDfkuczCRI,Evo Bangi (BBB),2.9628948,101.7546713,1,43560,OK,"establishment,lodging,point_of_interest"
265,GEOMETRIC_CENTER,"Bangi Gateway, Seksyen 15, 43650 Bandar Baru Bangi, Selangor, Malaysia",ChIJESPI7RLJzTEREW49D-1gnO0,Bangi Gateway (BBB),2.9334213,101.7648291,1,43650,OK,route
266,GEOMETRIC_CENTER,"Corporate Block, Unipark Suria, Jalan Ikram-Uniten, 43000 Kajang, Selangor, Malaysia",ChIJt_YF2UXKzTERkBVeNGde4XM,De Centrum City (BBB),2.979266,101.739063,1,43000,OK,"establishment,general_contractor,point_of_interest"
267,ROOFTOP,"8, Jalan Jelok Indah 9, Taman Jelok Indah, 43000 Kajang, Selangor, Malaysia",ChIJCRzZkH3MzTER3oaPdPiLtVQ,Metro Point Kajang,2.9916367,101.793722,1,43000,OK,"establishment,point_of_interest,shopping_mall"
268,ROOFTOP,"4, Jalan Tun Abdul Aziz, Seksyen 1, 43000 Kajang, Selangor, Malaysia",ChIJ1d1T94LLzTERtdPxjbCKA4I,Plaza Metro Kajang,2.991428,101.7890791,1,43000,OK,"establishment,point_of_interest,shopping_mall"
269,GEOMETRIC_CENTER,"Lot G02 Ground Floor Aeon Bukit Tinggi Shopping Center 41200 Klang Selangor MY, 41200, Selangor, Malaysia",ChIJVWTHIH2szTERTPzLGKUrqp8,ÆON Bukit Tinggi Shopping Centre at Klang,2.9945449,101.4442512,1,41200,OK,"establishment,point_of_interest,store"
270,ROOFTOP,"LOT F24 & F24A FIRST FLOOR AEON, Bukit Raja Shopping Centre, Persiaran, Bandar Baru Klang, 41150 Klang, Selangor, Malaysia",ChIJM0CH3htTzDERCyfD9Q6qhns,ÆON Bukit Raja Shopping Centre,3.060904,101.4721776,1,41150,OK,"establishment,point_of_interest,store"
271,GEOMETRIC_CENTER,"Lot G02 Ground Floor Aeon Bukit Tinggi Shopping Center 41200 Klang Selangor MY, 41200, Selangor, Malaysia",ChIJVWTHIH2szTERTPzLGKUrqp8,ÆON Bukit Tinggi Shopping Centre,2.9945449,101.4442512,1,41200,OK,"establishment,point_of_interest,store"
272,ROOFTOP,"Santos Degollado S/N, San Antonio, 32130 Cd Juárez, Chih., Mexico",ChIJcck7gyBZ54YRn6GCEhGCxnQ,Centro Mall,31.7413442,-106.487459,1,32130,OK,"establishment,movie_theater,point_of_interest"
273,GEOMETRIC_CENTER,"Jalan Klang Sentral, Klang Sentral, Meru, 41050 Klang, Selangor, Malaysia",ChIJTdnufvlTzDERZQvBWAsIeiQ,Galleri Klang Sentral,3.10778,101.439359,1,41050,OK,"establishment,point_of_interest,shopping_mall"
274,GEOMETRIC_CENTER,"Jalan Kasuarina 1, Bandar Botanic Capital, 41200 Klang, Selangor, Malaysia",ChIJAe8qC2OszTERJkZ2cS77y9Q,GM Klang Wholesale City,2.990741,101.4505,1,41200,OK,"establishment,point_of_interest,shopping_mall"
275,ROOFTOP,"23094 Perdido Beach Blvd, Orange Beach, AL 36561, USA",ChIJf6SKkzwEmogRDPEUqGu7wwU,Harbour Place,30.257597,-87.630054,1,36561,OK,"establishment,point_of_interest"
276,GEOMETRIC_CENTER,"Kawasan 17, 41050 Klang, Selangor, Malaysia",ChIJd3HmqG1TzDER96-aEJZcJME,Klang Parade,3.0637041,101.4537463,1,41050,OK,"establishment,point_of_interest,shopping_mall"
277,GEOMETRIC_CENTER,"Jalan Raja Hassan, Kawasan 18, 41300 Klang, Selangor, Malaysia",ChIJQcIJ_kRTzDER2eg--Tj2UgE,Shaw Centrepoint,3.04847,101.4477502,1,41300,OK,"establishment,point_of_interest,shopping_mall"
278,ROOFTOP,"1, Lebuh Bandar Utama, Bandar Utama, 47800 Petaling Jaya, Selangor, Malaysia",ChIJL-Qvn9JOzDERBLmeTTrrgf0,1 Utama Shopping Centre in Petaling Jaya,3.1505609,101.6149799,2,47800,OK,"establishment,point_of_interest,shopping_mall"
279,ROOFTOP,"L1.70 & L1.71 Amcorp Mall NO 18 PERSIARAN BARAT, OFF, Jalan Timur, Pjs 52, 46000 Petaling Jaya, Selangor, Malaysia",ChIJdSIb_tpLzDERcjJeJAOEhNI,AmCorp Mall,3.10502,101.647099,1,46000,OK,"establishment,point_of_interest,store"
280,GEOMETRIC_CENTER,"Jalan SS 22/23, Damansara Jaya, 47400 Petaling Jaya, Selangor, Malaysia",ChIJ8bk3pUxJzDERrFejLGpKfIg,Atria Shopping Gallery,3.127175,101.616584,1,47400,OK,"establishment,point_of_interest,shopping_mall"
281,ROOFTOP,"1, Jalan PJU 1a/48, Pusat Perdagangan Dana 1, 47301 Petaling Jaya, Selangor, Malaysia",ChIJgy-5zSlMzDERHBFPl7YJ7Zs,Citta Mall,3.1120389,101.5786661,1,47301,OK,"establishment,point_of_interest,shopping_mall"
282,ROOFTOP,"2A, Jalan PJU 7/3, Mutiara Damansara, 47810 Petaling Jaya, Selangor, Malaysia",ChIJZZhVVylPzDERjN8fzOYOJeg,eCurve,3.1567434,101.6097603,2,47810,OK,"establishment,point_of_interest,shopping_mall"
283,ROOFTOP,"22 Kota Damansara, Pusat Perdagangan, 19, Jalan PJU 5/20e, Pju 5 Kota Damansara, 47810 Petaling Jaya, Selangor, Malaysia",ChIJ_QZk0CFPzDERh2npbnmrS7g,Encorp Strand Mall,3.1554957,101.5936882,1,47810,OK,"establishment,point_of_interest,shopping_mall"
284,ROOFTOP,"D - 2 - 7, Jalan PJU 1A/4, Ara Damansara, 47301 Petaling Jaya, Selangor, Malaysia",ChIJpbkDxCZMzDERkKzyJKOd8Ko,Evolve Concept Mall,3.110669,101.5867705,1,47301,OK,"establishment,point_of_interest,shopping_mall"
285,ROOFTOP,"2, Jalan PJU 7/2, Mutiara Damansara, 47800 Petaling Jaya, Selangor, Malaysia",ChIJ-cmvnSxPzDERfLpSJ6vXRcE,IKEA Damansara,3.1570193,101.6129327,1,47800,OK,"establishment,home_goods_store,point_of_interest,store"
286,ROOFTOP,"2, Jalan PJU 7/2, Mutiara Damansara, 47800 Petaling Jaya, Selangor, Malaysia",ChIJifbmvytPzDERJYP7-uuIvJk,IPC Shopping Centre,3.1559622,101.6113335,1,47800,OK,"establishment,point_of_interest,premise"
287,GEOMETRIC_CENTER,"Jalan 14/17, Seksyen 14, 46100 Petaling Jaya, Selangor, Malaysia",ChIJL1DQlOBLzDERdyz6BPjUSxY,Jaya Shopping Centre,3.109268,101.637146,1,46100,OK,"establishment,food,grocery_or_supermarket,point_of_interest,shopping_mall,store,supermarket"
288,ROOFTOP,"1, Jalan SS 7/26a, Ss 7, 47301 Petaling Jaya, Selangor, Malaysia",ChIJDZNKSRhMzDERhJVpBl2HvHU,Paradigm Mall,3.1050808,101.5960603,1,47301,OK,"establishment,point_of_interest,shopping_mall"
289,ROOFTOP,"No. 2, Jalan PJU 5/14, Kota Damansara, 47810 Petaling Jaya, Selangor, Malaysia",ChIJMaQVaOBOzDER9CQ0pux-nz4,Sunway Giza Mall,3.1508743,101.5916407,1,47810,OK,"establishment,point_of_interest,shopping_mall"
290,GEOMETRIC_CENTER,"11901 North Macarthur Boulevard, Suite F1, Oklahoma City, OK 73162, United States",ChIJJ1n8XJ4EsocRW2SXzDvC9Kk,The Curve,35.59128,-97.621423,1,73162,OK,"establishment,health,point_of_interest"
291,ROOFTOP,"10148 Culebra Rd, San Antonio, TX 78251, USA",ChIJ459u0u9DXIYR07bguwgGcrQ,The Starling,29.488095,-98.690735,1,78251,OK,"establishment,point_of_interest"
292,ROOFTOP,"3, Jalan SS 20/27, Damansara Jaya, 47400 Petaling Jaya, Selangor, Malaysia",ChIJQd-9d0hJzDER65xpZRO9F6c,3 Damansara Shopping Mall,3.130799,101.627043,1,47400,OK,"establishment,point_of_interest,shopping_mall"
293,ROOFTOP,"1, Lebuh Bandar Utama, Bandar Utama, 47800 Petaling Jaya, Selangor, Malaysia",ChIJL-Qvn9JOzDERBLmeTTrrgf0,1 Utama,3.1505609,101.6149799,1,47800,OK,"establishment,point_of_interest,shopping_mall"
294,ROOFTOP,"1, Persiaran Anggun, Taman Anggun, 48000 Rawang, Selangor, Malaysia",ChIJDzRSAtpCzDERsUSmAm_xnnU,ÆON Rawang Anggun Shopping Centre,3.3166566,101.5364743,1,48000,OK,"department_store,establishment,point_of_interest,shopping_mall,store"
295,GEOMETRIC_CENTER,"Lebuhraya Selayang - Kepong, Taman Selayang Utama, 52100 Kuala Lumpur, Selangor, Malaysia",ChIJg3PYtmBGzDERdVqsZizorps,Selayang Mall,3.2370081,101.6444084,1,52100,OK,"establishment,point_of_interest,shopping_mall"
296,ROOFTOP,"Lebuhraya Selayang - Kepong, Taman Selayang Jaya, 68100 Batu Caves, Selangor, Malaysia",ChIJB7PPIfBGzDER53eMOaP71Y4,Selayang Capitol Complex,3.2405294,101.6483121,1,68100,OK,"establishment,premise"
297,GEOMETRIC_CENTER,"Persiaran Multimedia, Cyberjaya, 63000 Cyberjaya, Selangor, Malaysia",ChIJn_QIW_u2zTERR19CqNnhQCA,D'Pulze Shopping Centre,2.9221685,101.6509936,1,63000,OK,"establishment,point_of_interest,shopping_mall"
298,GEOMETRIC_CENTER,"Lebuhraya Klia Extension, 43900 Klia, Selangor, Malaysia",ChIJT9FTwpW_zTERH9f-OJEKg0Q,Gateway@KLIA2,2.7440889,101.6856391,1,43900,OK,"establishment,point_of_interest,shopping_mall"
299,GEOMETRIC_CENTER,"Persiaran Sepang, Cyber 11, 63000 Cyberjaya, Selangor, Malaysia",ChIJyxGIeNu2zTERFbLcWSCIHKA,Gem In Mall,2.9222215,101.6344813,1,63000,OK,"establishment,point_of_interest,shopping_mall"
300,ROOFTOP,"Persiaran Komersial, 64000 Klia, Selangor, Malaysia",ChIJDXMXsz2_zTERvT6djfbjm9w,Mitsui Outlet Park KLIA Sepang,2.779259,101.676584,1,64000,OK,"establishment,point_of_interest,shopping_mall"
301,APPROXIMATE,"Shaftsbury Square, 63000 Cyberjaya, Selangor, Malaysia",ChIJG3xmI1a2zTERGiNTMW1dQS8,Shaftsbury Square,2.922597,101.6618951,1,63000,OK,"political,sublocality,sublocality_level_1"
302,GEOMETRIC_CENTER,"Jln Akuatik 13/64, Seksyen 13, 40100 Shah Alam, Selangor, Malaysia",ChIJ5U48LKBNzDER-vfQfcuk_44,ÆON Mall Shah Alam,3.0760873,101.5482578,1,40100,OK,"establishment,point_of_interest,shopping_mall"
303,GEOMETRIC_CENTER,"Seksyen 14, 40000 Shah Alam, Selangor, Malaysia",ChIJrbQvOIFSzDERMQTWyIJi8Nw,Anggerik Mall,3.071168,101.5198705,1,40000,OK,"establishment,point_of_interest,shopping_mall"
304,ROOFTOP,"IRDKL Mall Jalan Serai Wangi, K, 16, K, Alam Avenue 2, Seksyen 16, 40000 Shah Alam, Selangor, Malaysia",ChIJBVu66edSzDER85Cm-sKoONM,IRDKL Mall,3.0565256,101.4897321,2,40000,OK,"establishment,movie_theater,point_of_interest"
305,GEOMETRIC_CENTER,"Persiaran Tasik, Seksyen 14, 40000 Shah Alam, Selangor, Malaysia",ChIJQ435kYZSzDERvs0A5EFX4Xs,Kompleks PKNS Shah Alam,3.07075,101.51703,1,40000,OK,"establishment,point_of_interest,shopping_mall"
306,GEOMETRIC_CENTER,"Jalan Pinang A 18/A, Seksyen 18, 40200 Shah Alam, Selangor, Malaysia",ChIJJ8JxFq9SzDEREvPGO4swtoU,Ole-Ole Shopping Centre,3.0434025,101.5172976,1,40200,OK,"establishment,parking,point_of_interest"
307,GEOMETRIC_CENTER,"Lot Lf19A First Floor, Plaza Shah Alam No, 2, Jalan Tengku Ampuan Zabedah E9/E, 40100 Shah Alam, Selangor, Malaysia",ChIJ0dZX7XdSzDERty1k5fDAwig,Plaza Shah Alam,3.0843809,101.5233285,1,40100,OK,"establishment,point_of_interest,store"
308,ROOFTOP,"Plaza Alam Sentral, Jalan Majlis, Seksyen 14, 40000 Shah Alam, Selangor, Malaysia",ChIJ5zrKEodSzDERWzp6P9_-9FI,Plaza Alam Sentral,3.0739915,101.517169,1,40000,OK,premise
309,ROOFTOP,"14/9, Jalan Perbadanan, Seksyen 14, 40000 Shah Alam, Selangor, Malaysia",ChIJU93Z2oZSzDERszvBCDApVBo,SACC Mall Shah Alam,3.0717161,101.5182511,1,40000,OK,"establishment,point_of_interest,shopping_mall"
310,GEOMETRIC_CENTER,"Persiaran Setia Dagang, Setia Alam, 40170 Shah Alam, Selangor, Malaysia",ChIJU_KM2n9SzDERdHKiiYBVsyM,Setia City Mall,3.1094906,101.4603707,1,40170,OK,"establishment,point_of_interest,shopping_mall"
311,ROOFTOP,"No.3, Jalan Zuhal U5/177, Bandar Pinggiran Subang, 40150 Shah Alam, Selangor, Malaysia",ChIJS-J9QLNPzDERY3uv7tysDw0,Star Avenue Lifestyle Mall,3.1548139,101.5536622,1,40150,OK,"establishment,point_of_interest,shopping_mall"
312,GEOMETRIC_CENTER,"Persiaran Pasak Bumi, U 8, 40150 Shah Alam, Selangor, Malaysia",ChIJxRioNN9NzDERsCFFjlsaKsI,Space U8 Mall,3.1118959,101.5532788,1,40150,OK,"establishment,movie_theater,point_of_interest"
313,GEOMETRIC_CENTER,"2, Lot Lorong 13, Aeon Taman Equine Shopping Centre, Jalan Equine, Bandar Putra Permai, 43300, Seri Kembangan, Selangor, 43300, Malaysia",ChIJOVSFQuHJzTERVX4LuYKyvEc,ÆON Taman Equine Shopping Centre,2.9944632,101.6742727,1,43300,OK,"establishment,point_of_interest"
314,GEOMETRIC_CENTER,"Subang Light Industrial Park, 47500 Subang Jaya, Selangor, Malaysia",ChIJpUKtKJRMzDER6degez4WWoc,Brother's Mall Wholesale City,3.0572505,101.5983639,1,47500,OK,"establishment,point_of_interest,shopping_mall"
315,ROOFTOP,"1, Persiaran Kewajipan, Usj 1, 47600 Subang Jaya, Selangor, Malaysia",ChIJOzk4S-tMzDERbZ8go-jmI3g,Da Men Mall,3.0581356,101.5923934,1,47600,OK,"establishment,point_of_interest,real_estate_agency,shopping_mall"
316,GEOMETRIC_CENTER,"Jalan SS 16/1, Ss 16, 47500 Subang Jaya, Selangor, Malaysia",ChIJ1dO4iFpMzDERNDCXYKfbsSg,Empire Subang,3.0819468,101.5827633,2,47500,OK,"establishment,point_of_interest,shopping_mall"
317,ROOFTOP,"IOI Resort City, Ioi Resort, 62502 Putrajaya, Wilayah Persekutuan Putrajaya, Malaysia",ChIJQWjHIQzKzTERgAEUgEQ4mCw,IOI City Mall (near Putrajaya),2.9703556,101.7133055,1,62502,OK,"establishment,point_of_interest,shopping_mall"
318,ROOFTOP,"LOT G38, GRD, Ioi Mall, BATU 9, Jalan Puchong, Bandar Puchong Jaya, 47100 Petaling Jaya, Selangor, Malaysia",ChIJO_4MNlhLzDERpcpwkxrLvOM,IOI Mall Puchong Jaya,3.0464504,101.6185223,1,47100,OK,"establishment,point_of_interest,store"
319,GEOMETRIC_CENTER,"47100 Puchong, Selangor, Malaysia",ChIJw514oXqzzTERLv7AdKPLNIc,M Square Puchong,3.0039736,101.6047275,1,47100,OK,"establishment,point_of_interest,shopping_mall"
320,ROOFTOP,"2800 N Main St, Santa Ana, CA 92705, USA",ChIJBVVt3M7Z3IARJ6df5O1VA5c,Main Place Mall,33.7751045,-117.871252,1,92705,OK,"establishment,point_of_interest,shopping_mall"
321,ROOFTOP,"0, MCT Tower, Jalan USJ 25/1B, One City, 47650 Subang Jaya, Selangor, Malaysia",ChIJtfulXJZMzDERXJS9tSOaiGM,One City Mall,3.0218814,101.5807127,1,47650,OK,"establishment,point_of_interest,real_estate_agency,shopping_mall"
322,GEOMETRIC_CENTER,"Taman Wawasan, 47100 Puchong, Selangor, Malaysia",ChIJiW13Zqq0zTER6giGBKMhrrk,Setia Walk Puchong,3.0314109,101.6168578,1,47100,OK,"establishment,point_of_interest"
323,ROOFTOP,"1515 S Federal Hwy, Boca Raton, FL 33432, USA",ChIJKf00Zw3i2IgRi-tKCmGLS8w,South City Plaza,26.3358812,-80.0885419,2,33432,OK,"establishment,point_of_interest,real_estate_agency"
324,GEOMETRIC_CENTER,"Jalan SS 15/4g, Ss 15, 47500 Subang Jaya, Selangor, Malaysia",ChIJ_VJGQVlMzDERCBLSw3Cupz4,SS15 Courtyard,3.077813,101.5863889,1,47500,OK,"establishment,food,point_of_interest,restaurant,shopping_mall"
325,GEOMETRIC_CENTER,"Jalan Kemajuan Subang, Ss 16, 47500 Subang Jaya, Selangor, Malaysia",ChIJH4fKE1tMzDERdH2TyRMZgSY,Subang Parade,3.0817432,101.5852077,1,47500,OK,"establishment,point_of_interest,shopping_mall"
326,ROOFTOP,"3, Jalan PJS 11/15, Bandar Sunway, 47500 Subang Jaya, Selangor, Malaysia",ChIJm21YdodMzDERJW_y1EmlGV4,Sunway Pyramid,3.072617,101.6068599,1,47500,OK,"establishment,point_of_interest,shopping_mall"
327,ROOFTOP,"330 Covell Ave SW, Walker, MI 49534, USA",ChIJh2JwwzeuGYgRG8LYLECyv04,The Mines,42.957661,-85.7162893,1,49534,OK,"establishment,point_of_interest"
328,GEOMETRIC_CENTER,"Summit USJ, Persiaran Kewajipan, Usj 1, 47600 Subang Jaya, Selangor, Malaysia",ChIJAWRCs-xMzDERGXu15ptW7D8,The Summit USJ,3.060097,101.59327,1,47600,OK,"establishment,point_of_interest,shopping_mall"
329,GEOMETRIC_CENTER,"The 19 USJ City Mall, Persiaran Kewajipan, Usj 19, 47620 Subang Jaya, Selangor, Malaysia",ChIJ08HolDSzzTERfe2RqBdEDdQ,The 19 USJ City Mall,3.032226,101.588699,1,47620,OK,"establishment,point_of_interest,shopping_mall"
330,GEOMETRIC_CENTER,"Jalan Subang 2, Subang Light Industrial Park, 47600 Subang Jaya, Selangor, Malaysia",ChIJSR-y1JVMzDERvO9YKyvTmVU,USJ Wholesale City Mall,3.0544416,101.59844,1,47600,OK,"establishment,point_of_interest,shopping_mall"
